name,country,state,city,logo,rulesets,website,wftdaWebsite,tags,isDeleted,lat,lng
Acadiana Roller Derby,us,,"Lafeyette, LA, us",/img/leagues/WFTDA/Acadiana.png,WFTDA,,https://wftda.com/wftda-leagues/acadiana-roller-derby/,[],FALSE,36.9597178,-86.407646
Adelaide Roller Derby,au,,"Adelaide, au",/img/leagues/WFTDA/adelaide-roller-derby.png,WFTDA,,https://wftda.com/wftda-leagues/adelaide-roller-derby/,[],FALSE,-34.9281805,138.5999312
Alamo City Roller Derby,us,,"San Antonio, TX, us",/img/leagues/WFTDA/Alamo-City-Roller-Derby.png,WFTDA,,https://wftda.com/wftda-leagues/alamo-city-roller-derby/,[],FALSE,29.4246002,-98.4951405
Albany All Stars,us,,"Albany, NY, us",/img/leagues/WFTDA/albany-all-stars.png,WFTDA,,https://wftda.com/wftda-leagues/albany-all-stars/,[],FALSE,42.6511674,-73.754968
Amsterdam Roller Derby,nl,,"Amsterdam, nl",/img/leagues/WFTDA/amsterdam-roller-derby.png,WFTDA,,https://wftda.com/wftda-leagues/amsterdam-roller-derby/,[],FALSE,52.3730796,4.8924534
Angel City Derby,us,,"Los Angeles, CA, us",/img/leagues/WFTDA/angel-city.png,WFTDA,,https://wftda.com/wftda-leagues/angel-city-derby/,[],FALSE,34.0536909,-118.242766
Ann Arbor Roller Derby,us,,"Ann Arbor, MI, us",/img/leagues/WFTDA/Ann-Arbor-Roller-Derby.png,WFTDA,,https://wftda.com/wftda-leagues/ann-arbor-roller-derby/,[],FALSE,42.2813722,-83.7484616
Kaiserslautern Roller Derby,de,,"Rhineland-Pfalz, de",/img/leagues/WFTDA/kaiserslautern.png,WFTDA,,https://wftda.com/wftda-leagues/kaiserslautern-roller-derby/,[],FALSE,49.9531599,7.310646
Appalachian Roller Derby,us,,"Boone, NC, us",/img/leagues/WFTDA/appalachian.png,WFTDA,,https://wftda.com/wftda-leagues/appalachian-roller-derby/,[],FALSE,36.2187873,-81.684004
Arch Rival Roller Derby,us,,"Saint Louis, MO, us",/img/leagues/WFTDA/arch-rival.png,WFTDA,,https://wftda.com/wftda-leagues/arch-rival-roller-derby/,[],FALSE,38.6280278,-90.1910154
Arizona Roller Derby,us,,"Phoenix, AZ, us",/img/leagues/WFTDA/Arizona-Roller-Derby.png,WFTDA,,https://wftda.com/wftda-leagues/arizona-roller-derby/,[],FALSE,33.4484367,-112.074141
Salt City Roller Derby,us,,"Syracuse, NY, us",/img/leagues/WFTDA/salt-city.png,WFTDA,,https://wftda.com/wftda-leagues/salt-city-roller-derby/,[],FALSE,43.0481221,-76.1474244
Assassination City Roller Derby,us,,"Dallas, TX, us",/img/leagues/WFTDA/assassination-city-roller-derby.png,WFTDA,,https://wftda.com/wftda-leagues/assassination-city-roller-derby/,[],FALSE,32.7762719,-96.7968559
Atlanta Roller Derby,us,,"Atlanta, GA, us",/img/leagues/WFTDA/atlanta-1.png,WFTDA,,https://wftda.com/wftda-leagues/atlanta-roller-derby/,[],FALSE,33.7544657,-84.3898151
Auckland Roller Derby,nz,,"Auckland, nz",/img/leagues/WFTDA/auckland-roller-derby.png,WFTDA,,https://wftda.com/wftda-leagues/auckland-roller-derby/,[],FALSE,-36.852095,174.7631803
Auld Reekie Roller Derby,gb,,"Edinburgh, Scotland, gb",/img/leagues/WFTDA/auld-reekie.png,WFTDA,,https://wftda.com/wftda-leagues/auld-reekie-roller-derby/,[],FALSE,55.9533456,-3.1883749
Aurora 88s Roller Derby,us,,"Aurora, IL, us",/img/leagues/WFTDA/aurora-88s-roller-derby.png,WFTDA,,https://wftda.com/wftda-leagues/aurora-88s-roller-derby/,[],FALSE,41.7571701,-88.3147539
Bakersfield Diamond Divas,us,,"Bakersfield, CA, us",/img/leagues/WFTDA/Bakersfield-Diamond-Divas.png,WFTDA,,https://wftda.com/wftda-leagues/bakersfield-diamond-divas/,[],FALSE,35.3738712,-119.019463
Barcelona Roller Derby,es,,"Barcelona, es",/img/leagues/WFTDA/Barcelona.png,WFTDA,,https://wftda.com/wftda-leagues/barcelona-roller-derby/,[],FALSE,41.3825802,2.177073
Bay Area Derby,us,,"San Francisco, CA, us",/img/leagues/WFTDA/bay-area-derby.png,WFTDA,,https://wftda.com/wftda-leagues/bay-area-derby/,[],FALSE,37.7792588,-122.4193286
Bay State Brawlers,us,,"Fitchburg, MA, us",/img/leagues/WFTDA/bay-state-brawlers.png,WFTDA,,https://wftda.com/wftda-leagues/bay-state-brawlers/,[],FALSE,42.5854371,-71.8046023
Panhandle United Roller Derby,us,,"Ft Walton, FL, us",/img/leagues/WFTDA/panhandle.png,WFTDA,,https://wftda.com/wftda-leagues/panhandle-united-roller-derby/,[],FALSE,30.6406089,-86.1876585
Bear City Roller Derby,de,,"Berlin, de",/img/leagues/WFTDA/bear-city.png,WFTDA,,https://wftda.com/wftda-leagues/bear-city-roller-derby/,[],FALSE,52.510885,13.3989367
Belfast Roller Derby,gb,,"Belfast, Northern Ireland, gb",/img/leagues/WFTDA/belfast-roller-derby.png,WFTDA,,https://wftda.com/wftda-leagues/belfast-roller-derby/,[],FALSE,54.5975804,-5.9277097
Bellingham Roller Betties,us,,"Bellingham, WA, us",/img/leagues/WFTDA/Bellingham-Roller-Betties.png,WFTDA,,https://wftda.com/wftda-leagues/bellingham-roller-betties/,[],FALSE,48.7544012,-122.478836
Big Easy Roller Derby,us,,"New Orleans, LA, us",/img/leagues/WFTDA/Big-Easy-Roller-Derby.png,WFTDA,,https://wftda.com/wftda-leagues/big-easy-roller-derby/,[],FALSE,29.9759983,-90.0782127
Birmingham Roller Derby,gb,,"Birmingham, England, gb",/img/leagues/WFTDA/Birmingham-Roller-Derby.png,WFTDA,,https://wftda.com/wftda-leagues/birmingham-roller-derby/,[],FALSE,52.4796992,-1.9026911
Black-n-Bluegrass Roller Derby,us,,"Latonia, KY, us",/img/leagues/WFTDA/Black-n-Bluegrass-Roller-Derby.png,WFTDA,,https://wftda.com/wftda-leagues/black-n-bluegrass-roller-derby/,[],FALSE,39.0473361,-84.5031192
Black Rose Rollers,us,,"Hanover, PA, us",/img/leagues/WFTDA/black-rose-rollers.png,WFTDA,,https://wftda.com/wftda-leagues/black-rose-rollers/,[],FALSE,39.8005316,-76.9832568
Blue Ridge Roller Derby,us,,"Asheville, NC, us",/img/leagues/WFTDA/Blue-Ridge-Roller-Derby.png,WFTDA,,https://wftda.com/wftda-leagues/blue-ridge-roller-derby/,[],FALSE,35.595363,-82.5508407
Boston Roller Derby,us,,"Boston, MA, us",/img/leagues/WFTDA/boston-roller-derby.png,WFTDA,,https://wftda.com/wftda-leagues/boston-roller-derby/,[],FALSE,42.3554334,-71.060511
Boulder County Roller Derby,us,,"Boulder, CO, us",/img/leagues/WFTDA/Boulder-County-Roller-Derby.png,WFTDA,,https://wftda.com/wftda-leagues/boulder-county-roller-derby/,[],FALSE,40.102555,-105.3632079
Brandywine Roller Derby,us,,"Downingtown, PA, us",/img/leagues/WFTDA/brandywine-roller-derby.png,WFTDA,,https://wftda.com/wftda-leagues/brandywine-roller-derby/,[],FALSE,40.0064958,-75.7032742
Brewcity Bruisers,us,,"Milwaukee, WI, us",/img/leagues/WFTDA/brewcity.png,WFTDA,,https://wftda.com/wftda-leagues/brewcity-bruisers/,[],FALSE,43.0386475,-87.9090751
Brussels Roller Derby,be,,"Brussels, be",/img/leagues/WFTDA/Brussels-Roller-Derby.png,WFTDA,,https://wftda.com/wftda-leagues/brussels-roller-derby/,[],FALSE,50.8465573,4.351697
Burning River Roller Derby,us,,"Cleveland, OH, us",/img/leagues/WFTDA/Burning-River-Roller-Derby.png,WFTDA,,https://wftda.com/wftda-leagues/burning-river-roller-derby/,[],FALSE,41.4996574,-81.6936772
Calgary Roller Derby,ca,,"Calgary, AB, ca",/img/leagues/WFTDA/Calgary-Roller-Derby--e1532363460143.png,WFTDA,,https://wftda.com/wftda-leagues/calgary-roller-derby/,[],FALSE,51.0456064,-114.057541
Canberra Roller Derby League,au,,"Canberra, ACT, au",/img/leagues/WFTDA/canberra-roller-derby-league.png,WFTDA,,https://wftda.com/wftda-leagues/canberra-roller-derby-league/,[],FALSE,-35.2975906,149.1012676
Cape Fear Roller Derby,us,,"Wilmington, NC, us",/img/leagues/WFTDA/Cape-Fear-Roller-Derby.png,WFTDA,,https://wftda.com/wftda-leagues/cape-fear-roller-derby/,[],FALSE,34.2352853,-77.9487284
Carolina Roller Derby,us,,"Raleigh, NC, us",/img/leagues/WFTDA/Carolina-Roller-Derby.png,WFTDA,,https://wftda.com/wftda-leagues/carolina-roller-derby/,[],FALSE,35.7803977,-78.6390989
Cedar Valley Roller Derby,us,,"Waterloo, IA, us",/img/leagues/WFTDA/cedar-valley-roller-derby.png,WFTDA,,https://wftda.com/wftda-leagues/cedar-valley-roller-derby/,[],FALSE,42.498275,-92.3328743
Rock Town Roller Derby,us,,"Little Rock, AR, us",/img/leagues/WFTDA/rock-town.png,WFTDA,,https://wftda.com/wftda-leagues/rock-town-roller-derby/,[],FALSE,34.7465071,-92.2896267
Central Coast Roller Derby,us,,"Paso Robles, CA, us",/img/leagues/WFTDA/central-coast-roller-derby.png,WFTDA,,https://wftda.com/wftda-leagues/central-coast-roller-derby/,[],FALSE,35.6262618,-120.6901319
Roller Derby of Central Kentucky,us,,"Lexington, KY, us",/img/leagues/WFTDA/central-kentucky.png,WFTDA,,https://wftda.com/wftda-leagues/roller-derby-of-central-kentucky/,[],FALSE,38.0464066,-84.4970393
Central New York Roller Derby,us,,"Utica/Rome, NY, us",/img/leagues/WFTDA/central-new-york.png,WFTDA,,https://wftda.com/wftda-leagues/central-new-york-roller-derby/,[],FALSE,43.2102196,-75.4583956
Charlotte Roller Derby,us,,"Charlotte, NC, us",/img/leagues/WFTDA/charlotte.png,WFTDA,,https://wftda.com/wftda-leagues/charlotte-roller-derby/,[],FALSE,35.2272086,-80.8430827
Charlottesville Derby Dames,us,,"Charlottesville, VA, us",/img/leagues/WFTDA/charlottesville-derby-dames.png,WFTDA,,https://wftda.com/wftda-leagues/charlottesville-derby-dames/,[],FALSE,38.029306,-78.4766781
Chattanooga Roller Derby,us,,"Chattanooga, TN, us",/img/leagues/WFTDA/Chattanooga-Roller-Derby.png,WFTDA,,https://wftda.com/wftda-leagues/chattanooga-roller-derby/,[],FALSE,35.0457219,-85.3094883
Cherry City Roller Derby,us,,"Salem, OR, us",/img/leagues/WFTDA/cherry-city-derby-girls.png,WFTDA,,https://wftda.com/wftda-leagues/cherry-city-roller-derby/,[],FALSE,44.9391565,-123.033121
Chippewa Valley Roller Derby,us,,"Eau Claire, WI, us",/img/leagues/WFTDA/chippewa-valley.png,WFTDA,,https://wftda.com/wftda-leagues/chippewa-valley-roller-derby/,[],FALSE,44.811349,-91.4984941
Cincinnati Rollergirls,us,,"Cincinnati, OH, us",/img/leagues/WFTDA/cincinnati-rollergirls.png,WFTDA,,https://wftda.com/wftda-leagues/cincinnati-rollergirls/,[],FALSE,39.1014537,-84.5124602
Circle City Roller Derby,us,,"Indianapolis, IN, us",/img/leagues/WFTDA/circle-city-roller-derby.png,WFTDA,,https://wftda.com/wftda-leagues/circle-city-roller-derby/,[],FALSE,39.7683331,-86.1583502
Classic City Roller Derby,us,,"Athens, GA, us",/img/leagues/WFTDA/classic-city-rollergirls.png,WFTDA,,https://wftda.com/wftda-leagues/classic-city-roller-derby/,[],FALSE,33.9597677,-83.376398
Golden City Rollers,za,,"Johannesburg, za",/img/leagues/WFTDA/golden-city-rollers.png,WFTDA,,https://wftda.com/wftda-leagues/golden-city-rollers/,[],FALSE,-26.205,28.049722
Cologne Roller Derby,de,,"Cologne, de",/img/leagues/WFTDA/cologne-roller-derby.png,WFTDA,,https://wftda.com/wftda-leagues/cologne-roller-derby/,[],FALSE,50.938361,6.959974
Columbia Roller Derby,us,,"Columbia, SC, us",/img/leagues/WFTDA/Columbia-Roller-Derby.png,WFTDA,,https://wftda.com/wftda-leagues/columbia-roller-derby/,[],FALSE,34.000754,-81.0352313
CoMo Roller Derby,us,,"Columbia/Jefferson City, MO, us",/img/leagues/WFTDA/CoMo-Roller-Derby.png,WFTDA,,https://wftda.com/wftda-leagues/como-roller-derby/,[],FALSE,38.951883,-92.3337366
Confluence Crush Roller Derby,us,,"Metro East, IL, us",/img/leagues/WFTDA/Confluence-Crush-Roller-Derby.png,WFTDA,,https://wftda.com/wftda-leagues/confluence-crush-roller-derby/,[],FALSE,42.2645997,-89.036292
Connecticut Roller Derby,us,,"Waterbury, CT, us",/img/leagues/WFTDA/connecticut.png,WFTDA,,https://wftda.com/wftda-leagues/connecticut-roller-derby/,[],FALSE,41.5544372,-73.0470175
Convict City Rollers,au,,"Hobart, TAS, au",/img/leagues/WFTDA/convict-city-rollers.png,WFTDA,,https://wftda.com/wftda-leagues/convict-city-rollers/,[],FALSE,-42.8825088,147.3281233
Copenhagen Roller Derby,dk,,"Copenhagen, dk",/img/leagues/WFTDA/copenhagen-roller-derby.png,WFTDA,,https://wftda.com/wftda-leagues/copenhagen-roller-derby/,[],FALSE,55.6867243,12.5700724
Cornfed Roller Derby,us,,"Muncie, IN, us",/img/leagues/WFTDA/Cornfed-Roller-Derby.png,WFTDA,,https://wftda.com/wftda-leagues/cornfed-roller-derby/,[],FALSE,40.1936892,-85.3865271
Crime City Rollers,se,,"Malmö, se",/img/leagues/WFTDA/Crime-City-Rollers.png,WFTDA,,https://wftda.com/wftda-leagues/crime-city-rollers/,[],FALSE,55.6052931,13.0001566
Dark River Derby Coalition,us,,"Quincy, IL, us",/img/leagues/WFTDA/dark-river-derby-coalition.png,WFTDA,,https://wftda.com/wftda-leagues/dark-river-derby-coalition/,[],FALSE,39.9356016,-91.4098727
DC Rollergirls,us,,"Washington, DC, us",/img/leagues/WFTDA/dc-rollergirls.png,WFTDA,,https://wftda.com/wftda-leagues/dc-rollergirls/,[],FALSE,38.8950368,-77.0365427
Demolition City Roller Derby,us,,"Evansville, IN, us",/img/leagues/WFTDA/Demolition-City-Roller-Derby.png,WFTDA,,https://wftda.com/wftda-leagues/demolition-city-roller-derby/,[],FALSE,37.970495,-87.5715641
Denver Roller Derby,us,,"Denver, CO, us",/img/leagues/WFTDA/denver-roller-derby.png,WFTDA,,https://wftda.com/wftda-leagues/denver-roller-derby/,[],FALSE,39.7392364,-104.984862
Louisville Roller Derby,us,,"Louisville, KY, us",/img/leagues/WFTDA/Louisville-Roller-Derby.png,WFTDA,,https://wftda.com/wftda-leagues/louisville-roller-derby/,[],FALSE,38.2542376,-85.759407
Detroit Roller Derby,us,,"Detroit, MI, us",/img/leagues/WFTDA/detroit.png,WFTDA,,https://wftda.com/wftda-leagues/detroit-roller-derby/,[],FALSE,42.3315509,-83.0466403
Diamond State Roller Derby,us,,"Wilmington, DE, us",/img/leagues/WFTDA/diamond-state-roller-derby.png,WFTDA,,https://wftda.com/wftda-leagues/diamond-state-roller-derby/,[],FALSE,39.7459468,-75.546589
Dirty River Roller Derby,fi,,"Turku, fi",/img/leagues/WFTDA/dirty-river.png,WFTDA,,https://wftda.com/wftda-leagues/dirty-river-roller-derby/,[],FALSE,60.4517531,22.2670522
Rocket City Roller Derby,us,,"Huntsville, AL, us",/img/leagues/WFTDA/Rocket-City-Roller-Derby.png,WFTDA,,https://wftda.com/wftda-leagues/rocket-city-roller-derby/,[],FALSE,34.729847,-86.5859011
Dock City Rollers,se,,"Gothenburg, se",/img/leagues/WFTDA/dock-city-rollers.png,WFTDA,,https://wftda.com/wftda-leagues/dock-city-rollers/,[],FALSE,57.7072326,11.9670171
Dockyard Roller Derby,us,,"Tacoma, WA, us",/img/leagues/WFTDA/Dockyard-Roller-Derby.png,WFTDA,,https://wftda.com/wftda-leagues/dockyard-roller-derby/,[],FALSE,47.2455013,-122.438329
Dolly Rockit Rollers,gb,,"Leicestershire, England, gb",/img/leagues/WFTDA/dolly-rockit-rollers.png,WFTDA,,https://wftda.com/wftda-leagues/dolly-rockit-rollers/,[],FALSE,52.666667,-1.0
Dominion Derby Girls,us,,"Virginia Beach, VA, us",/img/leagues/WFTDA/dominion-derby-girls.png,WFTDA,,https://wftda.com/wftda-leagues/dominion-derby-girls/,[],FALSE,36.8496579,-75.9760751
Downriver Roller Dolls,us,,"Woodhaven, MI, us",/img/leagues/WFTDA/downriver-roller-dolls.png,WFTDA,,https://wftda.com/wftda-leagues/downriver-roller-dolls/,[],FALSE,42.1370519,-83.2451066
Roller Derby Dresden,de,,"Dresden, de",/img/leagues/WFTDA/Roller-Derby-Dresden.png,WFTDA,,https://wftda.com/wftda-leagues/roller-derby-dresden/,[],FALSE,51.0493286,13.7381437
Dublin Roller Derby,ie,,"Dublin, ie",/img/leagues/WFTDA/Dublin-Roller-Derby-e1535045033954.png,WFTDA,,https://wftda.com/wftda-leagues/dublin-roller-derby/,[],FALSE,53.3493795,-6.2605593
Elevated Roller Derby,us,,"Albuquerque, NM, us",/img/leagues/WFTDA/Elevated-Roller-Derby.png,WFTDA,,https://wftda.com/wftda-leagues/elevated-roller-derby/,[],FALSE,35.0841034,-106.650985
Durango Roller Girls,us,,"Durango, CO, us",/img/leagues/WFTDA/durango-roller-girls.png,WFTDA,,https://wftda.com/wftda-leagues/durango-roller-girls/,[],FALSE,37.2769484,-107.8766
Dutchland Derby Rollers,us,,"Lancaster, PA, us",/img/leagues/WFTDA/dutchland-derby-rollers.png,WFTDA,,https://wftda.com/wftda-leagues/dutchland-derby-rollers/,[],FALSE,40.0379958,-76.3056707
Erie Roller Derby,us,,"Erie, PA, us",/img/leagues/WFTDA/Erie-Roller-Derby.png,WFTDA,,https://wftda.com/wftda-leagues/erie-roller-derby/,[],FALSE,42.1294712,-80.0852695
Eindhoven Rockcity Rollers,nl,,"Eindhoven, nl",/img/leagues/WFTDA/eindhoven-rockcity-rollers.png,WFTDA,,https://wftda.com/wftda-leagues/eindhoven-rockcity-rollers/,[],FALSE,51.4392648,5.478633
El Paso Roller Derby,us,,"El Paso, TX, us",/img/leagues/WFTDA/el-paso-roller-derby.png,WFTDA,,https://wftda.com/wftda-leagues/el-paso-roller-derby/,[],FALSE,31.7601164,-106.4870404
Fairbanks Roller Derby,us,,"Fairbanks, AK, us",/img/leagues/WFTDA/Fairbanks-Roller-Derby.png,WFTDA,,https://wftda.com/wftda-leagues/fairbanks-roller-derby/,[],FALSE,64.837845,-147.716675
Fargo Moorhead Derby Girls,us,,"Fargo, ND, us",/img/leagues/WFTDA/fargo-moorhead-derby-girls.png,WFTDA,,https://wftda.com/wftda-leagues/fargo-moorhead-derby-girls/,[],FALSE,46.877229,-96.789821
580 Rollergirls,us,,"Lawton, OK, us",/img/leagues/WFTDA/580-rollergirls.png,WFTDA,,https://wftda.com/wftda-leagues/580-rollergirls/,[],FALSE,34.6086854,-98.3903305
Fredericksburg Roller Derby,us,,"Fredericksburg, VA, us",/img/leagues/WFTDA/Fredericksburg-Roller-Derby.png,WFTDA,,https://wftda.com/wftda-leagues/fredericksburg-roller-derby/,[],FALSE,38.3031837,-77.4605399
FoCo Roller Derby,us,,"Fort Collins, CO, us",/img/leagues/WFTDA/foco-roller-derby.png,WFTDA,,https://wftda.com/wftda-leagues/foco-roller-derby/,[],FALSE,40.5871782,-105.0770113
Fog City Rollers,ca,,"Saint John, NB, ca",/img/leagues/WFTDA/fog-city-rollers.png,WFTDA,,https://wftda.com/wftda-leagues/fog-city-rollers/,[],FALSE,45.2787992,-66.0585188
Fort Myers Roller Derby,us,,"Fort Myers, FL, us",/img/leagues/WFTDA/fort-myers.png,WFTDA,,https://wftda.com/wftda-leagues/fort-myers-roller-derby/,[],FALSE,26.640628,-81.8723084
Fox Cities Roller Derby,us,,"Appleton, WI, us",/img/leagues/WFTDA/fox-cities-roller-derby.png,WFTDA,,https://wftda.com/wftda-leagues/fox-cities-roller-derby/,[],FALSE,44.2613967,-88.4069744
Fort Wayne Roller Derby,us,,"Fort Wayne, IN, us",/img/leagues/WFTDA/Fort-Wayne-Roller-Derby.png,WFTDA,,https://wftda.com/wftda-leagues/fort-wayne-roller-derby/,[],FALSE,41.0799898,-85.1386015
Gainesville Roller Rebels,us,,"Gainesville, FL, us",/img/leagues/WFTDA/gainesville-roller-rebels.png,WFTDA,,https://wftda.com/wftda-leagues/gainesville-roller-rebels/,[],FALSE,29.6519684,-82.3249846
Team Montana Roller Derby,us,,"Bozeman, MT, us",/img/leagues/WFTDA/Team-Montana-Roller-Derby.png,WFTDA,,https://wftda.com/wftda-leagues/team-montana-roller-derby/,[],FALSE,45.6794293,-111.044047
Garden State Roller Derby,us,,"North Arlington, NJ, us",/img/leagues/WFTDA/Garden-State-Roller-Derby.png,WFTDA,,https://wftda.com/wftda-leagues/garden-state-roller-derby/,[],FALSE,40.788434,-74.1331988
Gem City Roller Derby,us,,"Dayton, OH, us",/img/leagues/WFTDA/gem-city-roller-derby.png,WFTDA,,https://wftda.com/wftda-leagues/gem-city-roller-derby/,[],FALSE,39.7589478,-84.1916069
Glasgow Roller Derby,gb,,"Glasgow, Scotland, gb",/img/leagues/WFTDA/glasgow-roller-derby.png,WFTDA,,https://wftda.com/wftda-leagues/glasgow-roller-derby/,[],FALSE,55.861155,-4.2501687
Glass City Rollers,us,,"Toledo, OH, us",/img/leagues/WFTDA/glass-city-rollers.png,WFTDA,,https://wftda.com/wftda-leagues/glass-city-rollers/,[],FALSE,41.6529143,-83.5378173
Gold Coast Derby Grrls,us,,"Fort Lauderdale, FL, us",/img/leagues/WFTDA/Gold-Coast-Derby-Grrls.png,WFTDA,,https://wftda.com/wftda-leagues/gold-coast-derby-grrls/,[],FALSE,26.1223084,-80.1433786
Gotham Roller Derby,us,,"New York, NY, us",/img/leagues/WFTDA/Gotham-Roller-Derby.png,WFTDA,,https://wftda.com/wftda-leagues/gotham-roller-derby/,[],FALSE,40.7127281,-74.0060152
Gothenburg Roller Derby,se,,"Gothenburg, se",/img/leagues/WFTDA/gothenburg-roller-derby.png,WFTDA,,https://wftda.com/wftda-leagues/gothenburg-roller-derby/,[],FALSE,57.7072326,11.9670171
Grand Raggidy Roller Derby,us,,"Grand Rapids, MI, us",/img/leagues/WFTDA/grand-raggidy-roller-derby.png,WFTDA,,https://wftda.com/wftda-leagues/grand-raggidy-roller-derby/,[],FALSE,42.9632425,-85.6678639
Granite State Roller Derby,us,,"Concord, NH, us",/img/leagues/WFTDA/granite-state-roller-derby.png,WFTDA,,https://wftda.com/wftda-leagues/granite-state-roller-derby/,[],FALSE,43.207178,-71.537476
Gray City Rebels,br,,"Sao Paolo, br",/img/leagues/WFTDA/gray-city-rebels.png,WFTDA,,https://wftda.com/wftda-leagues/gray-city-rebels/,[],FALSE,-23.5506507,-46.6333824
Green Mountain Roller Derby,us,,"Essex Junction, VT, us",/img/leagues/WFTDA/green-mountain-roller-derby.png,WFTDA,,https://wftda.com/wftda-leagues/green-mountain-roller-derby/,[],FALSE,44.4906817,-73.11136
Greensboro Roller Derby,us,,"Greensboro, NC, us",/img/leagues/WFTDA/greensboro.png,WFTDA,,https://wftda.com/wftda-leagues/greensboro-roller-derby/,[],FALSE,36.0726355,-79.7919754
Greenville Roller Derby,us,,"Greenville, SC, us",/img/leagues/WFTDA/Greenville-Roller-Derby.png,WFTDA,,https://wftda.com/wftda-leagues/greenville-roller-derby/,[],FALSE,34.851354,-82.3984882
Hogtown Roller Derby,ca,,"Toronto, ON, ca",/img/leagues/WFTDA/Hogtown-.png,WFTDA,,https://wftda.com/wftda-leagues/hogtown-roller-derby/,[],FALSE,34.851354,-82.3984882
Hammer City Roller Derby,ca,,"Hamilton, ON, ca",/img/leagues/WFTDA/hammer-city.png,WFTDA,,https://wftda.com/wftda-leagues/hammer-city-roller-derby/,[],FALSE,43.2560802,-79.8728583
Happy Valley Derby Darlins,us,,"Utah County, UT, us",/img/leagues/WFTDA/happy-valley-derby-darlins.png,WFTDA,,https://wftda.com/wftda-leagues/happy-valley-derby-darlins/,[],FALSE,40.177058,-111.6910719
Harbor City Roller Derby,us,,"Duluth, MN, us",/img/leagues/WFTDA/Harbor-City-Roller-Derby.png,WFTDA,,https://wftda.com/wftda-leagues/harbor-city-roller-derby/,[],FALSE,46.7729322,-92.1251218
Hard Knox Roller Derby,us,,"Knoxville, TN, us",/img/leagues/WFTDA/Hard-Knox-Roller-Derby.png,WFTDA,,https://wftda.com/wftda-leagues/hard-knox-roller-derby/,[],FALSE,35.9603948,-83.9210261
Harpies Roller Derby Milano,it,,"Milan, it",/img/leagues/WFTDA/harpies-roller-derby-milano.png,WFTDA,,https://wftda.com/wftda-leagues/harpies-roller-derby-milano/,[],FALSE,45.4641943,9.1896346
Harrisburg Area Roller Derby,us,,"Enola, PA, us",/img/leagues/WFTDA/harrisburg-area-roller-derby.png,WFTDA,,https://wftda.com/wftda-leagues/harrisburg-area-roller-derby/,[],FALSE,40.2853013,-76.9358463
Hartford Area Roller Derby,us,,"Manchester, CT, us",/img/leagues/WFTDA/hartford-area-roller-derby.png,WFTDA,,https://wftda.com/wftda-leagues/hartford-area-roller-derby/,[],FALSE,37.2734688,-80.0453174
Hellions of Troy Roller Derby,us,,"Saratoga Springs, NY, us",/img/leagues/WFTDA/hellions-of-troy-roller-derby.png,WFTDA,,https://wftda.com/wftda-leagues/hellions-of-troy-roller-derby/,[],FALSE,43.0821793,-73.7853915
Ladies of HellTown,br,,"Sao Paulo, SP, br",/img/leagues/WFTDA/ladies-of-helltown.png,WFTDA,,https://wftda.com/wftda-leagues/ladies-of-helltown/,[],FALSE,-23.5506507,-46.6333824
Helsinki Roller Derby,fi,,"Helsinki, fi",/img/leagues/WFTDA/Helsinki.png,WFTDA,,https://wftda.com/wftda-leagues/helsinki-roller-derby/,[],FALSE,60.1674881,24.9427473
Hudson Valley Horrors Roller Derby,us,,"Kingston, NY, us",/img/leagues/WFTDA/hudson-valley-horrors-roller-derby.png,WFTDA,,https://wftda.com/wftda-leagues/hudson-valley-horrors-roller-derby/,[],FALSE,41.9287812,-74.0023825
Hulls Angels Roller Derby,gb,,"Hull, England, gb",/img/leagues/WFTDA/hulls-angels.png,WFTDA,,https://wftda.com/wftda-leagues/hulls-angels-roller-derby/,[],FALSE,53.7623862,-0.3301214
Humboldt Roller Derby,us,,"Eureka, CA, us",/img/leagues/WFTDA/humboldt-roller-derby.png,WFTDA,,https://wftda.com/wftda-leagues/humboldt-roller-derby/,[],FALSE,40.8018746,-124.1707558
Wicked City Roller Derby,us,,"Wichita, KS, us",/img/leagues/WFTDA/Wicked-City-Roller-Derby.png,WFTDA,,https://wftda.com/wftda-leagues/wicked-city-roller-derby/,[],FALSE,37.6922361,-97.3375448
Ithaca League of Women Rollers,us,,"Ithaca, NY, us",/img/leagues/WFTDA/ithaca-league-of-women-rollers.png,WFTDA,,https://wftda.com/wftda-leagues/ithaca-league-of-women-rollers/,[],FALSE,42.4374175,-76.5483724
Jackson Hole Juggernauts,us,,"Jackson, WY, us",/img/leagues/WFTDA/jackson-hole-juggernauts.png,WFTDA,,https://wftda.com/wftda-leagues/jackson-hole-juggernauts/,[],FALSE,43.479965,-110.761815
Jacksonville Roller Derby,us,,"Jacksonville, FL, us",/img/leagues/WFTDA/Jacksonville-Roller-Derby.png,WFTDA,,https://wftda.com/wftda-leagues/jacksonville-roller-derby/,[],FALSE,30.3321838,-81.655651
Jersey Shore Roller Derby,us,,"Toms River, NJ, us",/img/leagues/WFTDA/Jersey-Shore-Roller-Derby.png,WFTDA,,https://wftda.com/wftda-leagues/jersey-shore-roller-derby/,[],FALSE,39.9526791,-74.1968257
Jet City Roller Derby,us,,"Everett, WA, us",/img/leagues/WFTDA/jet-city.png,WFTDA,,https://wftda.com/wftda-leagues/jet-city-roller-derby/,[],FALSE,47.9793437,-122.2127011
Junction City Roller Derby,us,,"Ogden, UT, us",/img/leagues/WFTDA/junction-city-roller-dolls.png,WFTDA,,https://wftda.com/wftda-leagues/junction-city-roller-derby/,[],FALSE,41.2230048,-111.9738429
Kallio Rolling Rainbow,fi,,"Helsinki, fi",/img/leagues/WFTDA/kallio-rolling-rainbow.png,WFTDA,,https://wftda.com/wftda-leagues/kallio-rolling-rainbow/,[],FALSE,60.1674881,24.9427473
Kansas City Roller Warriors,us,,"Kansas City, MO, us",/img/leagues/WFTDA/Kansas-City-Roller-Warriors.png,WFTDA,,https://wftda.com/wftda-leagues/kansas-city-roller-warriors/,[],FALSE,39.100105,-94.5781416
West Coast Derby Knockouts,us,,"Ventura, CA, us",/img/leagues/WFTDA/west-coast-derby-knockouts.png,WFTDA,,https://wftda.com/wftda-leagues/west-coast-derby-knockouts/,[],FALSE,34.2783355,-119.293174
Lafayette Roller Derby,us,,"Lafayette, IN, us",/img/leagues/WFTDA/Lafayette-Roller-Derby.png,WFTDA,,https://wftda.com/wftda-leagues/lafayette-roller-derby/,[],FALSE,40.4191229,-86.8919011
Lava City Roller Derby,us,,"Bend, OR, us",/img/leagues/WFTDA/lava-city.png,WFTDA,,https://wftda.com/wftda-leagues/lava-city-roller-derby/,[],FALSE,44.0581728,-121.3153096
Leeds Roller Derby,gb,,"Leeds, England, gb",/img/leagues/WFTDA/leeds-1.png,WFTDA,,https://wftda.com/wftda-leagues/leeds-roller-derby/,[],FALSE,53.7974185,-1.5437941
Lehigh Valley Roller Derby,us,,"Bethlehem, PA, us",/img/leagues/WFTDA/lehigh-valley.png,WFTDA,,https://wftda.com/wftda-leagues/lehigh-valley-roller-derby/,[],FALSE,40.6178915,-75.3786521
Les Quads de Paris,fr,,"Paris, fr",/img/leagues/WFTDA/les-quads-de-paris.png,WFTDA,,https://wftda.com/wftda-leagues/les-quads-de-paris/,[],FALSE,48.8588897,2.320041
Lilac City Roller Derby,us,,"Spokane, WA, us",/img/leagues/WFTDA/lilac-city-rollergirls.png,WFTDA,,https://wftda.com/wftda-leagues/lilac-city-roller-derby/,[],FALSE,47.6571934,-117.42351
Lomme Roller Derby,fr,,"Lomme, fr",/img/leagues/WFTDA/Lomme-Roller-Derby.png,WFTDA,,https://wftda.com/wftda-leagues/lomme-roller-derby/,[],FALSE,50.6457022,2.9870927
Little City Roller Derby,us,,"Johnson City, TN, us",/img/leagues/WFTDA/Little-City-Roller-Derby.png,WFTDA,,https://wftda.com/wftda-leagues/little-city-roller-derby/,[],FALSE,36.3134398,-82.3534728
Youngstown Area Roller Derby,us,,"Youngstown, OH, us",/img/leagues/WFTDA/Youngstown-Roller-Derby.png,WFTDA,,https://wftda.com/wftda-leagues/youngstown-area-roller-derby/,[],FALSE,41.1035786,-80.6520161
London Roller Derby,gb,,"London, England, gb",/img/leagues/WFTDA/london-roller-derby.png,WFTDA,,https://wftda.com/wftda-leagues/london-roller-derby/,[],FALSE,51.4893335,-0.1440551
London Rockin’ Rollers,gb,,"London, England, gb",/img/leagues/WFTDA/london-rockin-rollers.png,WFTDA,,https://wftda.com/wftda-leagues/london-rockin-rollers/,[],FALSE,51.4893335,-0.1440551
Long Island Roller Rebels,us,,"Massapequa, NY, us",/img/leagues/WFTDA/Long-Island-Roller-Rebels.png,WFTDA,,https://wftda.com/wftda-leagues/long-island-roller-rebels/,[],FALSE,40.669501,-73.4698253
Lowcountry Highrollers,us,,"Charleston, SC, us",/img/leagues/WFTDA/lowcountry-highrollers.png,WFTDA,,https://wftda.com/wftda-leagues/lowcountry-highrollers/,[],FALSE,32.7884363,-79.9399309
Lutèce Destroyeuses,fr,,"Paris, fr",/img/leagues/WFTDA/lutece-destroyeuses.png,WFTDA,,https://wftda.com/wftda-leagues/lutece-destroyeuses/,[],FALSE,48.8588897,2.320041
Madison Roller Derby,us,,"Madison, WI, us",/img/leagues/WFTDA/madison.png,WFTDA,,https://wftda.com/wftda-leagues/madison-roller-derby/,[],FALSE,43.074761,-89.3837613
Roller Derby Madrid,es,,"Madrid, es",/img/leagues/WFTDA/roller-derby-madrid.png,WFTDA,,https://wftda.com/wftda-leagues/roller-derby-madrid/,[],FALSE,40.4167047,-3.7035825
Maine Roller Derby,us,,"Portland, ME, us",/img/leagues/WFTDA/maine-roller-derby.png,WFTDA,,https://wftda.com/wftda-leagues/maine-roller-derby/,[],FALSE,43.6573605,-70.2586618
Greater Vancouver Roller Derby,ca,,"Vancouver, BC, ca",/img/leagues/WFTDA/Greater-Vancouver-Roller-Derby.png,WFTDA,,https://wftda.com/wftda-leagues/greater-vancouver-roller-derby/,[],FALSE,49.2608724,-123.113952
Peach State Roller Derby,us,,"Marietta, GA, us",/img/leagues/WFTDA/Peach-State-Roller-Derby.png,WFTDA,,https://wftda.com/wftda-leagues/peach-state-roller-derby/,[],FALSE,33.9528472,-84.5496148
Mass Attack Roller Derby,us,,"Fairhaven, MA, us",/img/leagues/WFTDA/mass-attack-roller-derby.png,WFTDA,,https://wftda.com/wftda-leagues/mass-attack-roller-derby/,[],FALSE,41.6376043,-70.9036487
MedCity Mafia Roller Derby,us,,"Rochester, MN, us",/img/leagues/WFTDA/medcity-mafia-roller-derby.png,WFTDA,,https://wftda.com/wftda-leagues/medcity-mafia-roller-derby/,[],FALSE,44.0234387,-92.4630182
Memphis Roller Derby,us,,"Memphis, TN, us",/img/leagues/WFTDA/Mephis-Roller-Derby.png,WFTDA,,https://wftda.com/wftda-leagues/memphis-roller-derby/,[],FALSE,35.1460249,-90.0517638
Middlesbrough Roller Derby,gb,,"Middlesbrough, England, gb",/img/leagues/WFTDA/middlesbrough.png,WFTDA,,https://wftda.com/wftda-leagues/middlesbrough-roller-derby/,[],FALSE,54.5760419,-1.2344047
Mid-State Roller Derby,us,,"Stevens Point, WI, us",/img/leagues/WFTDA/Mid-State-Roller-Derby.png,WFTDA,,https://wftda.com/wftda-leagues/mid-state-roller-derby/,[],FALSE,44.5234467,-89.5844457
Minnesota Roller Derby,us,,"Saint Paul, MN, us",/img/leagues/WFTDA/minnesota-roller-derby.png,WFTDA,,https://wftda.com/wftda-leagues/minnesota-roller-derby/,[],FALSE,44.9497487,-93.0931028
Mission City Roller Derby,us,,"Santa Barbara, CA, us",/img/leagues/WFTDA/mission-city-roller-derby.png,WFTDA,,https://wftda.com/wftda-leagues/mission-city-roller-derby/,[],FALSE,34.4221319,-119.702667
Mississippi Valley Mayhem,us,,"La Crosse, WI, us",/img/leagues/WFTDA/mississippi-valley-mayhem.png,WFTDA,,https://wftda.com/wftda-leagues/mississippi-valley-mayhem/,[],FALSE,43.8122836,-91.2514355
Monterey Bay Roller Derby,us,,"Monterey, CA, us",/img/leagues/WFTDA/Monterey-Bay-Roller-Derby.png,WFTDA,,https://wftda.com/wftda-leagues/monterey-bay-roller-derby/,[],FALSE,36.2231079,-121.387742
Montréal Roller Derby,ca,,"Montréal, QC, ca",/img/leagues/WFTDA/montreal-roller-derby.png,WFTDA,,https://wftda.com/wftda-leagues/montreal-roller-derby/,[],FALSE,45.5031824,-73.5698065
Morgantown Roller Derby,us,,"Morgantown, WV, us",/img/leagues/WFTDA/Morgantown-Roller-Derby.png,WFTDA,,https://wftda.com/wftda-leagues/morgantown-roller-derby/,[],FALSE,39.6296809,-79.9559437
Muddy River Rollers,ca,,"Moncton, NB, ca",/img/leagues/WFTDA/muddy-river-rollers.png,WFTDA,,https://wftda.com/wftda-leagues/muddy-river-rollers/,[],FALSE,46.0985679,-64.8004265
Munich Rolling Rebels,de,,"Munich, de",/img/leagues/WFTDA/munich-rolling-rebels.png,WFTDA,,https://wftda.com/wftda-leagues/munich-rolling-rebels/,[],FALSE,48.1371079,11.5753822
Muscogee Roller Girls,us,,"Columbus, GA, us",/img/leagues/WFTDA/muscogee-roller-girls.png,WFTDA,,https://wftda.com/wftda-leagues/muscogee-roller-girls/,[],FALSE,32.4610708,-84.9880449
Nantes Roller Derby,fr,,"Nantes, fr",/img/leagues/WFTDA/Nantes-Roller-Derby.png,WFTDA,,https://wftda.com/wftda-leagues/nantes-roller-derby/,[],FALSE,47.2186371,-1.5541362
Naptown Roller Derby,us,,"Indianapolis, IN, us",/img/leagues/WFTDA/naptown.png,WFTDA,,https://wftda.com/wftda-leagues/naptown-roller-derby/,[],FALSE,39.7683331,-86.1583502
Nashville Roller Derby,us,,"Nashville, TN, us",/img/leagues/WFTDA/nashville.png,WFTDA,,https://wftda.com/wftda-leagues/nashville-roller-derby/,[],FALSE,36.1622767,-86.7742984
Naughty Pines Roller Derby,us,,"Laramie, WY, us",/img/leagues/WFTDA/Naughty-Pines-Roller-Derby.png,WFTDA,,https://wftda.com/wftda-leagues/naughty-pines-roller-derby/,[],FALSE,41.3116442,-105.5917876
Northern Brisbane Rollers,au,,"Brisbane, QLD, au",/img/leagues/WFTDA/northern-brisbane-rollers.png,WFTDA,,https://wftda.com/wftda-leagues/northern-brisbane-rollers/,[],FALSE,-27.4689623,153.0235009
Akron Roller Derby,us,,"Akron, OH, us",/img/leagues/WFTDA/akron.png,WFTDA,,https://wftda.com/wftda-leagues/akron-roller-derby/,[],FALSE,41.083064,-81.518485
Newcastle Roller Derby,gb,,"Newcastle Upon Tyne, England, gb",/img/leagues/WFTDA/Newcastle-Roller-Derby-UK-.png,WFTDA,,https://wftda.com/wftda-leagues/newcastle-roller-derby/,[],FALSE,54.9738474,-1.6131572
New Hampshire Roller Derby,us,,"Manchester, NH, us",/img/leagues/WFTDA/new-hampshire-roller-derby.png,WFTDA,,https://wftda.com/wftda-leagues/new-hampshire-roller-derby/,[],FALSE,42.9956397,-71.4547891
Nidaros Roller Derby,no,,"Trondheim, no",/img/leagues/WFTDA/nidaros-roller-derby.png,WFTDA,,https://wftda.com/wftda-leagues/nidaros-roller-derby/,[],FALSE,63.4304475,10.3952118
No Coast Roller Derby,us,,"Lincoln, NE, us",/img/leagues/WFTDA/no-coast.png,WFTDA,,https://wftda.com/wftda-leagues/no-coast-roller-derby/,[],FALSE,40.8088861,-96.7077751
North Star Roller Derby,us,,"Minneapolis, MN, us",/img/leagues/WFTDA/north-star.png,WFTDA,,https://wftda.com/wftda-leagues/north-star-roller-derby/,[],FALSE,44.9772995,-93.2654692
North Texas Roller Derby,us,,"Denton, TX, us",/img/leagues/WFTDA/north-texas-roller-derby.png,WFTDA,,https://wftda.com/wftda-leagues/north-texas-roller-derby/,[],FALSE,33.1838787,-97.1413417
Natural State Roller Derby,us,,"Fayetteville, AR, us",/img/leagues/WFTDA/Natural-State-Roller-Derby.png,WFTDA,,https://wftda.com/wftda-leagues/natural-state-roller-derby/,[],FALSE,36.0625843,-94.1574328
Twin Valleys Roller Derby,us,,"Christiansburg, VA, us",/img/leagues/WFTDA/twin-valleys.png,WFTDA,,https://wftda.com/wftda-leagues/twin-valleys-roller-derby/,[],FALSE,37.1298517,-80.4089389
West Sound Roller Derby,us,,"Bremerton, WA, us",/img/leagues/WFTDA/West_Sound_Roller_Derby.png,WFTDA,,https://wftda.com/wftda-leagues/west-sound-roller-derby/,[],FALSE,47.5653663,-122.6246836
Ohio Roller Derby,us,,"Columbus, OH, us",/img/leagues/WFTDA/Ohio-Roller-Derby.png,WFTDA,,https://wftda.com/wftda-leagues/ohio-roller-derby/,[],FALSE,39.9622601,-83.0007065
Ohio Valley Roller Derby,us,,"Martins Ferry, OH, us",/img/leagues/WFTDA/Ohio-Valley-Roller-Derby.png,WFTDA,,https://wftda.com/wftda-leagues/ohio-valley-roller-derby/,[],FALSE,40.0959055,-80.724526
Old Capitol City Roller Derby,us,,"Iowa City, IA, us",/img/leagues/WFTDA/old-capitol-city-roller-derby.png,WFTDA,,https://wftda.com/wftda-leagues/old-capitol-city-roller-derby/,[],FALSE,41.6612561,-91.5299106
Omaha Roller Derby,us,,"Omaha, NE, us",/img/leagues/WFTDA/Omaha_Roller_Derby.png,WFTDA,,https://wftda.com/wftda-leagues/omaha-roller-derby/,[],FALSE,41.2587459,-95.9383758
Antwerp Roller Derby,be,,"Antwerp, be",/img/leagues/WFTDA/antwerp.png,WFTDA,,https://wftda.com/wftda-leagues/antwerp-roller-derby/,[],FALSE,51.2211097,4.3997081
Oslo Roller Derby,no,,"Oslo, no",/img/leagues/WFTDA/oslo.png,WFTDA,,https://wftda.com/wftda-leagues/oslo-roller-derby/,[],FALSE,59.9133301,10.7389701
Pacific Roller Derby,us,,"Honolulu, HI, us",/img/leagues/WFTDA/pacific-roller-derby.png,WFTDA,,https://wftda.com/wftda-leagues/pacific-roller-derby/,[],FALSE,21.304547,-157.855676
Paris Roller Derby,fr,,"Paris, fr",/img/leagues/WFTDA/Paris-Roller-Derby.png,WFTDA,,https://wftda.com/wftda-leagues/paris-roller-derby/,[],FALSE,48.8588897,2.320041
Peninsula Roller Derby,us,,"Burlingame, CA, us",/img/leagues/WFTDA/peninsula.png,WFTDA,,https://wftda.com/wftda-leagues/peninsula-roller-derby/,[],FALSE,37.5780965,-122.3473099
West Florida Roller Derby,us,,"Pensacola, FL, us",/img/leagues/WFTDA/West-Florida-Roller-Derby.png,WFTDA,,https://wftda.com/wftda-leagues/west-florida-roller-derby/,[],FALSE,30.421309,-87.2169149
Perth Roller Derby,au,,"Perth, au",/img/leagues/WFTDA/Perth-Roller-Derby.png,WFTDA,,https://wftda.com/wftda-leagues/perth-roller-derby/,[],FALSE,-31.9558967,115.8605784
Philly Roller Derby,us,,"Philadelphia, PA, us",/img/leagues/WFTDA/philly-roller-derby.png,WFTDA,,https://wftda.com/wftda-leagues/philly-roller-derby/,[],FALSE,39.9527237,-75.1635262
Pikes Peak Roller Derby,us,,"Colorado Springs, CO, us",/img/leagues/WFTDA/Pikes-Peak-Roller-Derby.png,WFTDA,,https://wftda.com/wftda-leagues/pikes-peak-roller-derby/,[],FALSE,38.8339578,-104.825348
Pirate City Rollers,nz,,"Auckland, nz",/img/leagues/WFTDA/pirate-city-rollers.png,WFTDA,,https://wftda.com/wftda-leagues/pirate-city-rollers/,[],FALSE,-36.852095,174.7631803
Prairieland Punishers,us,,"Decatur, IL, us",/img/leagues/WFTDA/prairieland-punishers.png,WFTDA,,https://wftda.com/wftda-leagues/prairieland-punishers/,[],FALSE,39.8454163,-88.9524151
Providence Roller Derby,us,,"Providence, RI, us",/img/leagues/WFTDA/providence-roller-derby.png,WFTDA,,https://wftda.com/wftda-leagues/providence-roller-derby/,[],FALSE,41.8239891,-71.4128343
Quad City Rollers,us,,"Bettendorf, IA, us",/img/leagues/WFTDA/quad-city-rollers.png,WFTDA,,https://wftda.com/wftda-leagues/quad-city-rollers/,[],FALSE,41.5253792,-90.5098639
Queen City Roller Derby,us,,"Buffalo, NY, us",/img/leagues/WFTDA/Queen-City-Roller-Derby.png,WFTDA,,https://wftda.com/wftda-leagues/queen-city-roller-derby/,[],FALSE,42.8867166,-78.8783922
Wilkes-Barre Scranton Roller Derby,us,,"Wilkes-Barre, PA, us",/img/leagues/WFTDA/Wilkes-Barre_Scranton_Roller_Derby.png,WFTDA,,https://wftda.com/wftda-leagues/wilkes-barre-scranton-roller-derby/,[],FALSE,41.2464824,-75.8817316
Rage City Roller Derby,us,,"Anchorage, AK, us",/img/leagues/WFTDA/rage-city-roller-derby.png,WFTDA,,https://wftda.com/wftda-leagues/rage-city-roller-derby/,[],FALSE,61.2163129,-149.894852
Rainy City Roller Derby,gb,,"Manchester, England, gb",/img/leagues/WFTDA/rainy-city-roller-derby.png,WFTDA,,https://wftda.com/wftda-leagues/rainy-city-roller-derby/,[],FALSE,53.4794892,-2.2451148
Rat City Roller Derby,us,,"Seattle, WA, us",/img/leagues/WFTDA/rat-city-roller-derby.png,WFTDA,,https://wftda.com/wftda-leagues/rat-city-roller-derby/,[],FALSE,47.6038321,-122.330062
Roller Derby Quebec,ca,,"Quebec, QC, ca",/img/leagues/WFTDA/Roller-Derby-Quebec.png,WFTDA,,https://wftda.com/wftda-leagues/roller-derby-quebec/,[],FALSE,46.8137431,-71.2084061
Red Stick Roller Derby,us,,"Baton Rouge, LA, us",/img/leagues/WFTDA/red-stick-roller-derby.png,WFTDA,,https://wftda.com/wftda-leagues/red-stick-roller-derby/,[],FALSE,30.4494155,-91.1869659
Renegade Derby Dames,ca,,"Alliston, ON, ca",/img/leagues/WFTDA/renegade-derby-dames.png,WFTDA,,https://wftda.com/wftda-leagues/renegade-derby-dames/,[],FALSE,44.1539369,-79.8692321
Richland County Regulators Derby Team,us,,"Columbia, SC, us",/img/leagues/WFTDA/richland-county-regulators-derby-team.png,WFTDA,,https://wftda.com/wftda-leagues/richland-county-regulators-derby-team/,[],FALSE,34.000754,-81.0352313
Richter City Roller Derby,nz,,"Wellington, nz",/img/leagues/WFTDA/Richter-City-Roller-Derby.png,WFTDA,,https://wftda.com/wftda-leagues/richter-city-roller-derby/,[],FALSE,-41.2887953,174.7772114
Ottawa Valley Roller Derby,ca,,"Ottawa, ON, ca",/img/leagues/WFTDA/ottowa-valley.png,WFTDA,,https://wftda.com/wftda-leagues/ottawa-valley-roller-derby/,[],FALSE,45.4208777,-75.6901106
River City Roller Derby,us,,"Richmond, VA, us",/img/leagues/WFTDA/rivery-city.png,WFTDA,,https://wftda.com/wftda-leagues/river-city-roller-derby/,[],FALSE,37.5385087,-77.43428
Roc City Roller Derby,us,,"Rochester, NY, us",/img/leagues/WFTDA/roc-city-roller-derby.png,WFTDA,,https://wftda.com/wftda-leagues/roc-city-roller-derby/,[],FALSE,43.157285,-77.615214
Roller Derby Karlsruhe,de,,"Karlsruhe, de",/img/leagues/WFTDA/roller-derby-karlsruhe.png,WFTDA,,https://wftda.com/wftda-leagues/roller-derby-karlsruhe/,[],FALSE,49.0068705,8.4034195
Rock Coast Roller Derby,us,,"Rockland, ME, us",/img/leagues/WFTDA/Rock-Coast-Roller-Derby.png,WFTDA,,https://wftda.com/wftda-leagues/rock-coast-roller-derby/,[],FALSE,44.1048327,-69.1091823
Rockford Rage Roller Derby,us,,"Rockford, IL, us",/img/leagues/WFTDA/rock-coast-rollers.png,WFTDA,,https://wftda.com/wftda-leagues/rockford-rage-roller-derby/,[],FALSE,42.2713945,-89.093966
Rockin City Roller Derby,us,,"Round Rock, TX, us",/img/leagues/WFTDA/Rockin-City-Roller-Derby.png,WFTDA,,https://wftda.com/wftda-leagues/rockin-city-roller-derby/,[],FALSE,30.5085915,-97.6788056
Rock n Roller Queens,co,,"Bogotá, D.C., co",/img/leagues/WFTDA/rock-n-roller-queens.png,WFTDA,,https://wftda.com/wftda-leagues/rock-n-roller-queens/,[],FALSE,4.2834715,-74.1753606
Rocktown Rollers,us,,"Harrisonburg, VA, us",/img/leagues/WFTDA/rocktown-rollers.png,WFTDA,,https://wftda.com/wftda-leagues/rocktown-rollers/,[],FALSE,38.4493315,-78.8688833
Rocky Mountain Roller Derby,us,,"Denver, CO, us",/img/leagues/WFTDA/rocky-mountain-roller-derby.png,WFTDA,,https://wftda.com/wftda-leagues/rocky-mountain-roller-derby/,[],FALSE,39.7392364,-104.984862
Rodeo City Roller Derby,us,,"Ellensburg, WA, us",/img/leagues/WFTDA/Rodeo-City-Roller-Derby.png,WFTDA,,https://wftda.com/wftda-leagues/rodeo-city-roller-derby/,[],FALSE,46.9970635,-120.545122
Fayetteville Roller Derby,us,,"Fayetteville, NC, us",/img/leagues/WFTDA/fayetteville.png,WFTDA,,https://wftda.com/wftda-leagues/fayetteville-roller-derby/,[],FALSE,35.0525759,-78.878292
Rose City Rollers,us,,"Portland, OR, us",/img/leagues/WFTDA/rose-city-rollers.png,WFTDA,,https://wftda.com/wftda-leagues/rose-city-rollers/,[],FALSE,45.5202471,-122.674194
Roughneck Roller Derby,us,,"Tulsa, OK, us",/img/leagues/WFTDA/roughneck-roller-derby.png,WFTDA,,https://wftda.com/wftda-leagues/roughneck-roller-derby/,[],FALSE,36.1563122,-95.9927516
Royal City Roller Derby,ca,,"Guelph, ON, ca",/img/leagues/WFTDA/royal-city.png,WFTDA,,https://wftda.com/wftda-leagues/royal-city-roller-derby/,[],FALSE,43.5460516,-80.2493276
Ruhrpott Roller Derby,de,,"Essen, de",/img/leagues/WFTDA/Ruhrpott-Roller-Derby.png,WFTDA,,https://wftda.com/wftda-leagues/ruhrpott-roller-derby/,[],FALSE,51.4582235,7.0158171
Sacramento Roller Derby,us,,"Sacramento, CA, us",/img/leagues/WFTDA/sacramento-round.png,WFTDA,,https://wftda.com/wftda-leagues/sacramento-roller-derby/,[],FALSE,38.5810606,-121.493895
Sailor City Rollers,ar,,"Buenos Aires, ar",/img/leagues/WFTDA/sailor-city.png,WFTDA,,https://wftda.com/wftda-leagues/sailor-city-rollers/,[],FALSE,38.5810606,-121.493895
San Fernando Valley Roller Derby,us,,"Van Nuys, CA, us",/img/leagues/WFTDA/san-fernando-valley-roller-derby.png,WFTDA,,https://wftda.com/wftda-leagues/san-fernando-valley-roller-derby/,[],FALSE,34.1866193,-118.4486675
Santa Cruz Roller Derby,us,,"Santa Cruz, CA, us",/img/leagues/WFTDA/Santa-Cruz-Roller-Derby.png,WFTDA,,https://wftda.com/wftda-leagues/santa-cruz-roller-derby/,[],FALSE,37.050096,-121.99059
Savannah Derby Devils,us,,"Savannah, GA, us",/img/leagues/WFTDA/savannah-derby-devils.png,WFTDA,,https://wftda.com/wftda-leagues/savannah-derby-devils/,[],FALSE,32.0790074,-81.0921335
Shasta Roller Derby,us,,"Redding, CA, us",/img/leagues/WFTDA/shasta-roller-derby.png,WFTDA,,https://wftda.com/wftda-leagues/shasta-roller-derby/,[],FALSE,40.5863563,-122.391675
Sheffield Steel Roller Derby,gb,,"Sheffield, England, gb",/img/leagues/WFTDA/sheffield-steel.png,WFTDA,,https://wftda.com/wftda-leagues/sheffield-steel-roller-derby/,[],FALSE,53.3806626,-1.4702278
Sick Town Roller Derby,us,,"Corvallis, OR, us",/img/leagues/WFTDA/Sick-Town-Roller-Derby.png,WFTDA,,https://wftda.com/wftda-leagues/sick-town-roller-derby/,[],FALSE,44.5645659,-123.2620435
Silicon Valley Roller Derby,us,,"San Jose, CA, us",/img/leagues/WFTDA/Silicon-Valley-Roller-Derby.png,WFTDA,,https://wftda.com/wftda-leagues/silicon-valley-roller-derby/,[],FALSE,37.3361663,-121.890591
Fabulous Sin City Roller Derby,us,,"Las Vegas, NV, us",/img/leagues/WFTDA/fabulous-sin-city-rollergirls.png,WFTDA,,https://wftda.com/wftda-leagues/fabulous-sin-city-roller-derby/,[],FALSE,36.171697,-115.1463536
Sioux Falls Roller Dollz,us,,"Sioux Falls, SD, us",/img/leagues/WFTDA/sioux-city-roller-dames.png,WFTDA,,https://wftda.com/wftda-leagues/sioux-falls-roller-dollz/,[],FALSE,43.5476008,-96.7293629
SoCal Derby,us,,"San Diego, CA, us",/img/leagues/WFTDA/socal-derby.png,WFTDA,,https://wftda.com/wftda-leagues/socal-derby/,[],FALSE,32.7174202,-117.162772
Sonoma County Roller Derby,us,,"Santa Rosa, CA, us",/img/leagues/WFTDA/sonoma-county-roller-derby.png,WFTDA,,https://wftda.com/wftda-leagues/sonoma-county-roller-derby/,[],FALSE,38.4404925,-122.7141049
Soul City Sirens,us,,"Augusta, GA, us",/img/leagues/WFTDA/soul-city-sirens.png,WFTDA,,https://wftda.com/wftda-leagues/soul-city-sirens/,[],FALSE,33.4709714,-81.9748429
South Bend Roller Derby,us,,"South Bend, IN, us",/img/leagues/WFTDA/South-Bend-Roller-Derby.png,WFTDA,,https://wftda.com/wftda-leagues/south-bend-roller-derby/,[],FALSE,41.6833813,-86.2500066
South Coast Roller Derby,us,,"San Clemente, CA, us",/img/leagues/WFTDA/south-coast.png,WFTDA,,https://wftda.com/wftda-leagues/south-coast-roller-derby/,[],FALSE,33.4270275,-117.6124179
Southern Delaware Roller Derby,us,,"Sussex County, DE, us",/img/leagues/WFTDA/so-del.png,WFTDA,,https://wftda.com/wftda-leagues/southern-delaware-roller-derby/,[],FALSE,38.6908097,-75.3691421
Southern Illinois Roller Gremlins,us,,"Marion, IL, us",/img/leagues/WFTDA/wftda-logo-light.png,WFTDA,,https://wftda.com/wftda-leagues/southern-illinois-roller-gremlins/,[],FALSE,38.6477381,-88.9232112
SO Derby,us,,"Medford, OR, us",/img/leagues/WFTDA/so-derby.png,WFTDA,,https://wftda.com/wftda-leagues/so-derby/,[],FALSE,42.3264181,-122.8718605
South Sea Roller Derby,au,,"Parkdale, VIC, au",/img/leagues/WFTDA/south-sea-roller-derby.png,WFTDA,,https://wftda.com/wftda-leagues/south-sea-roller-derby/,[],FALSE,-37.9930593,145.0763034
Springfield Roller Derby,us,,"Springfield, MO, us",/img/leagues/WFTDA/springfield.png,WFTDA,,https://wftda.com/wftda-leagues/springfield-roller-derby/,[],FALSE,37.2081729,-93.2922715
State College Area Roller Derby,us,,"State College, PA, us",/img/leagues/WFTDA/state-college-area-roller-derby.png,WFTDA,,https://wftda.com/wftda-leagues/state-college-area-roller-derby/,[],FALSE,40.7944504,-77.8616386
St. Chux Derby Crew,us,,"St. Charles, MO, us",/img/leagues/WFTDA/St-Chux-Derby-Crew.png,WFTDA,,https://wftda.com/wftda-leagues/st-chux-derby-crew/,[],FALSE,38.7877791,-90.6747372
Steel City Roller Derby,us,,"Pittsburgh, PA, us",/img/leagues/WFTDA/steel-city-roller-derby.png,WFTDA,,https://wftda.com/wftda-leagues/steel-city-roller-derby/,[],FALSE,40.4416941,-79.9900861
Stockholm Roller Derby,se,,"Stockholm, se",/img/leagues/WFTDA/stockholm-roller-derby.png,WFTDA,,https://wftda.com/wftda-leagues/stockholm-roller-derby/,[],FALSE,59.3251172,18.0710935
St. Pauli Roller Derby,de,,"Hamburg, de",/img/leagues/WFTDA/st-pauli.png,WFTDA,,https://wftda.com/wftda-leagues/st-pauli-roller-derby/,[],FALSE,59.3251172,18.0710935
Stuttgart Valley Roller Derby,de,,"Stuttgart, de",/img/leagues/WFTDA/Stuttgart-Valley-Roller-Derby.png,WFTDA,,https://wftda.com/wftda-leagues/stuttgart-valley-roller-derby/,[],FALSE,48.7784485,9.1800132
Sun State Roller Derby,au,,"Browns Plains, QLD, au",/img/leagues/WFTDA/sun-state.png,WFTDA,,https://wftda.com/wftda-leagues/sun-state-roller-derby/,[],FALSE,-27.662885,153.0516055
Sydney Roller Derby League,au,,"Sydney, NSW, au",/img/leagues/WFTDA/sydney.png,WFTDA,,https://wftda.com/wftda-leagues/sydney-roller-derby-league/,[],FALSE,-33.8698439,151.2082848
Tallahassee Roller Derby,us,,"Tallahassee, FL, us",/img/leagues/WFTDA/Tallahassee-Roller-Derby.png,WFTDA,,https://wftda.com/wftda-leagues/tallahassee-roller-derby/,[],FALSE,30.4380832,-84.2809332
Tampa Roller Derby,us,,"Tampa, FL, us",/img/leagues/WFTDA/tampa-roller-derby.png,WFTDA,,https://wftda.com/wftda-leagues/tampa-roller-derby/,[],FALSE,27.9477595,-82.458444
Tampere Roller Derby,fi,,"Tampere, fi",/img/leagues/WFTDA/tampere.png,WFTDA,,https://wftda.com/wftda-leagues/tampere-roller-derby/,[],FALSE,61.4980214,23.7603118
Des Moines Roller Derby,us,,"Des Moines, IA, us",/img/leagues/WFTDA/DesMoines-Roller-Derby.png,WFTDA,,https://wftda.com/wftda-leagues/des-moines-roller-derby/,[],FALSE,41.5868654,-93.6249494
Terminal City Roller Derby Association,ca,,"Vancouver, BC, ca",/img/leagues/WFTDA/Terminal-City.png,WFTDA,,https://wftda.com/wftda-leagues/terminal-city-roller-derby-association/,[],FALSE,49.2608724,-123.113952
Texas Rollergirls,us,,"Austin, TX, us",/img/leagues/WFTDA/texas.png,WFTDA,,https://wftda.com/wftda-leagues/texas-rollergirls/,[],FALSE,30.2711286,-97.7436995
Tiger Bay Brawlers,wal,,"Cardiff, wal",/img/leagues/WFTDA/tiger-bay.png,WFTDA,,https://wftda.com/wftda-leagues/tiger-bay-brawlers/,[],FALSE,51.5304342,-3.2511376
Toronto Roller Derby,ca,,"Toronto, ON, ca",/img/leagues/WFTDA/toronto.png,WFTDA,,https://wftda.com/wftda-leagues/toronto-roller-derby/,[],FALSE,51.5304342,-3.2511376
Tragic City Rollers,us,,"Birmingham, AL, us",/img/leagues/WFTDA/tragic-city-rollers.png,WFTDA,,https://wftda.com/wftda-leagues/tragic-city-rollers/,[],FALSE,33.5206824,-86.8024326
Treasure Valley Roller Derby,us,,"Boise, ID, us",/img/leagues/WFTDA/Treasure-Valley-Roller-Derby.png,WFTDA,,https://wftda.com/wftda-leagues/treasure-valley-roller-derby/,[],FALSE,43.6166163,-116.200886
Tri-City Roller Derby,ca,,"Kitchener, ON, ca",/img/leagues/WFTDA/tri-city-roller-derby.png,WFTDA,,https://wftda.com/wftda-leagues/tri-city-roller-derby/,[],FALSE,43.451291,-80.4927815
Tucson Roller Derby,us,,"Tucson, AZ, us",/img/leagues/WFTDA/tucson-roller-derby.png,WFTDA,,https://wftda.com/wftda-leagues/tucson-roller-derby/,[],FALSE,32.2228765,-110.974847
Twin City Derby Group,us,,"Champaign, IL, us",/img/leagues/WFTDA/Twin-City-Derby-Group.png,WFTDA,,https://wftda.com/wftda-leagues/twin-city-derby-group/,[],FALSE,40.1164841,-88.2430932
2×4 Roller Derby,ar,,"Buenos Aires, ar",/img/leagues/WFTDA/2-x-4-roller-derby.png,WFTDA,,https://wftda.com/wftda-leagues/2x4-roller-derby/,[],FALSE,-34.6083696,-58.4440583
Ventura County Derby Darlins,us,,"Ventura, CA, us",/img/leagues/WFTDA/ventura-county-derby-darlins.png,WFTDA,,https://wftda.com/wftda-leagues/ventura-county-derby-darlins/,[],FALSE,34.2783355,-119.293174
Vette City Roller Derby,us,,"Bowling Green, KY, us",/img/leagues/WFTDA/vette-city-roller-derby.png,WFTDA,,https://wftda.com/wftda-leagues/vette-city-roller-derby/,[],FALSE,36.9903199,-86.4436018
Victorian Roller Derby League,au,,"Melbourne, VIC, au",/img/leagues/WFTDA/victoria.png,WFTDA,,https://wftda.com/wftda-leagues/victorian-roller-derby-league/,[],FALSE,-37.8142454,144.9631732
Twister City Roller Derby,us,,"Oklahoma City, OK, us",/img/leagues/WFTDA/Twister-City-Roller-Derby.png,WFTDA,,https://wftda.com/wftda-leagues/twister-city-roller-derby/,[],FALSE,35.4729886,-97.5170536
Vienna Roller Derby,at,,"Vienna, at",/img/leagues/WFTDA/vienna-roller-derby.png,WFTDA,,https://wftda.com/wftda-leagues/vienna-roller-derby/,[],FALSE,48.2083537,16.3725042
V Town Roller Derby,us,,"Visalia, CA, us",/img/leagues/WFTDA/v-town-derby-dames.png,WFTDA,,https://wftda.com/wftda-leagues/v-town-roller-derby/,[],FALSE,36.3302284,-119.292058
Waimea Wranglers Rough Rollers,us,,"Kamuela, HI, us",/img/leagues/WFTDA/waimea-wranglers-rough-rollers.png,WFTDA,,https://wftda.com/wftda-leagues/waimea-wranglers-rough-rollers/,[],FALSE,20.020452,-155.66391
Wasatch Roller Derby,us,,"Salt Lake City, UT, us",/img/leagues/WFTDA/wasatch-roller-derby.png,WFTDA,,https://wftda.com/wftda-leagues/wasatch-roller-derby/,[],FALSE,40.7596198,-111.886797
Western Australia Roller Derby,au,,"Perth, WA, au",/img/leagues/WFTDA/western-australia-roller-derby.png,WFTDA,,https://wftda.com/wftda-leagues/western-australia-roller-derby/,[],FALSE,-31.9558967,115.8605784
West Texas Roller Derby,us,,"Lubbock, TX, us",/img/leagues/WFTDA/west-texas.png,WFTDA,,https://wftda.com/wftda-leagues/west-texas-roller-derby/,[],FALSE,33.5855677,-101.8470215
Windy City Rollers,us,,"Chicago, IL, us",/img/leagues/WFTDA/windy-city-rollers.png,WFTDA,,https://wftda.com/wftda-leagues/windy-city-rollers/,[],FALSE,41.8755616,-87.6244212
Wine Town Rollers,us,,"Temecula, CA, us",/img/leagues/WFTDA/wine-town-rollers.png,WFTDA,,https://wftda.com/wftda-leagues/wine-town-rollers/,[],FALSE,33.4946353,-117.147366
Yellow Rose Roller Derby,us,,"Houston, TX, us",/img/leagues/WFTDA/Yellow-Rose-Roller-Derby.png,WFTDA,,https://wftda.com/wftda-leagues/yellow-rose-roller-derby/,[],FALSE,29.7589382,-95.3676974
Zürich City Roller Derby,ch,,"Zurich, ch",/img/leagues/WFTDA/zurich.png,WFTDA,,https://wftda.com/wftda-leagues/zurich-city-roller-derby/,[],FALSE,47.3744489,8.5410422
Barbed Wire Betties,us,,"DeKalb, IL, us",/img/leagues/WFTDA/barbed-wire.png,WFTDA,,https://wftda.com/wftda-leagues/barbed-wire-betties/,[],FALSE,41.8903447,-88.7713953
Bogotá Bone Breakers,co,,"Bogotá, D.C., co",/img/leagues/WFTDA/bogota.png,WFTDA,,https://wftda.com/wftda-leagues/bogota-bone-breakers/,[],FALSE,4.2834715,-74.1753606
Roller Derby Bordeaux,fr,,"Bordeaux, fr",/img/leagues/WFTDA/Roller-Derby-Bordeaux.png,WFTDA,,https://wftda.com/wftda-leagues/roller-derby-bordeaux/,[],FALSE,44.841225,-0.5800364
Brighton Rockers Roller Derby,gb,,"Brighton, England, gb",/img/leagues/WFTDA/brighton.png,WFTDA,,https://wftda.com/wftda-leagues/brighton-rockers-roller-derby/,[],FALSE,50.8214626,-0.1400561
Roller Derby Caen,fr,,"Caen, fr",/img/leagues/WFTDA/caen.png,WFTDA,,https://wftda.com/wftda-leagues/roller-derby-caen/,[],FALSE,49.1813403,-0.3635615
Cape Town Rollergirls,za,,"Cape Town, za",/img/leagues/WFTDA/Cape-Town-Rollergirls.png,WFTDA,,https://wftda.com/wftda-leagues/cape-town-rollergirls/,[],FALSE,-33.9288301,18.4172197
Coastal Assassins Roller Derby,au,,"Golden Beach, QLD, au",/img/leagues/WFTDA/coastal-assassins.png,WFTDA,,https://wftda.com/wftda-leagues/coastal-assassins-roller-derby/,[],FALSE,-26.8156844,153.1197588
Capital City Crushers,us,,"Topeka, KS, us",/img/leagues/WFTDA/capital-city.png,WFTDA,,https://wftda.com/wftda-leagues/capital-city-crushers/,[],FALSE,39.049011,-95.677556
Marquette Roller Derby,us,,"Marquette, MI, us",/img/leagues/WFTDA/wftda-logo-light.png,WFTDA,,https://wftda.com/wftda-leagues/marquette-roller-derby/,[],FALSE,46.4481521,-87.6305899
Dom City Roller Derby,nl,,"Ulrecht, nl",/img/leagues/WFTDA/dom-city.png,WFTDA,,https://wftda.com/wftda-leagues/dom-city-roller-derby/,[],FALSE,,
Dundee Roller Derby,gb,,"Dundee, Scotland, gb",/img/leagues/WFTDA/dundee-roller-derby.png,WFTDA,,https://wftda.com/wftda-leagues/dundee-roller-derby/,[],FALSE,56.4605938,-2.97019
Dunedin Derby,nz,,"Dunedin, nz",/img/leagues/WFTDA/dunedin.png,WFTDA,,https://wftda.com/wftda-leagues/dunedin-derby/,[],FALSE,-45.8740984,170.5035755
Enchanted Mountain Roller Derby,us,,"Allegany, NY, us",/img/leagues/WFTDA/enchanted-mountain.png,WFTDA,,https://wftda.com/wftda-leagues/enchanted-mountain-roller-derby/,[],FALSE,42.2446061,-78.0419281
Free State Roller Derby,us,,"Rockville, MD, us",/img/leagues/WFTDA/free-state.png,WFTDA,,https://wftda.com/wftda-leagues/free-state-roller-derby/,[],FALSE,39.0817985,-77.1516844
Cape Girardeau Roller Derby,us,,"Cape Girardeau, MO, us",/img/leagues/WFTDA/cape-girardeau.png,WFTDA,,https://wftda.com/wftda-leagues/cape-girardeau-roller-derby/,[],FALSE,37.3034933,-89.5230357
Gorge Roller Derby,us,,"Hood River, OR, us",/img/leagues/WFTDA/gorge-roller-derby.png,WFTDA,,https://wftda.com/wftda-leagues/gorge-roller-derby/,[],FALSE,45.5311636,-121.6475587
High Altitude Roller Derby,us,,"Flagstaff, AZ, us",/img/leagues/WFTDA/high-altitude.png,WFTDA,,https://wftda.com/wftda-leagues/high-altitude-roller-derby/,[],FALSE,35.1987522,-111.651822
Keweenaw Roller Derby,us,,"Hancock, MI, us",/img/leagues/WFTDA/Keweenaw-Roller-Derby-for-WFTDA.com_.png,WFTDA,,https://wftda.com/wftda-leagues/keweenaw-roller-derby/,[],FALSE,47.126871,-88.580956
Kingston Roller Derby,ca,,"Kingston, ON, ca",/img/leagues/WFTDA/kingston.png,WFTDA,,https://wftda.com/wftda-leagues/kingston-roller-derby/,[],FALSE,44.3054151,-76.4283781
Los Alamos Derby Dames,us,,"Los Alamos, NM, us",/img/leagues/WFTDA/los-alamos.png,WFTDA,,https://wftda.com/wftda-leagues/los-alamos-derby-dames/,[],FALSE,35.88137,-106.298959
Metropolitan Roller Derby Chile,cl,,"Santiago, cl",/img/leagues/WFTDA/metropolitan.png,WFTDA,,https://wftda.com/wftda-leagues/metropolitan-roller-derby-chile/,[],FALSE,-25.8660029,28.1056489
Namur Roller Derby,be,,"Namur, be",/img/leagues/WFTDA/Namur-Roller-Derby.png,WFTDA,,https://wftda.com/wftda-leagues/namur-roller-derby/,[],FALSE,50.4665284,4.8661892
Northern Arizona Roller Derby,us,,"Prescott, AZ, us",/img/leagues/WFTDA/northern-arizona.png,WFTDA,,https://wftda.com/wftda-leagues/northern-arizona-roller-derby/,[],FALSE,34.539984,-112.468812
NOVA Roller Derby,us,,"Leesburg, VA, us",/img/leagues/WFTDA/nova.png,WFTDA,,https://wftda.com/wftda-leagues/nova-roller-derby/,[],FALSE,39.1154506,-77.5645607
Orlando Roller Derby,us,,"Orlando, FL, us",/img/leagues/WFTDA/orlando.png,WFTDA,,https://wftda.com/wftda-leagues/orlando-roller-derby/,[],FALSE,28.5421109,-81.3790304
Penn Jersey Roller Derby,us,,"Philadelphia, PA, us",/img/leagues/WFTDA/penn-jersey.png,WFTDA,,https://wftda.com/wftda-leagues/penn-jersey-roller-derby/,[],FALSE,39.9527237,-75.1635262
Prague City Roller Derby,cz,,"Prague, cz",/img/leagues/WFTDA/prague.png,WFTDA,,https://wftda.com/wftda-leagues/prague-city-roller-derby/,[],FALSE,50.0596288,14.4464593
Reading Roller Derby,us,,"Reading, PA, us",/img/leagues/WFTDA/Reading-Roller-Derby.png,WFTDA,,https://wftda.com/wftda-leagues/reading-roller-derby/,[],FALSE,40.335345,-75.9279495
Roller Derby Rennes,fr,,"Rennes, fr",/img/leagues/WFTDA/rennes.png,WFTDA,,https://wftda.com/wftda-leagues/roller-derby-rennes/,[],FALSE,48.1113387,-1.6800198
Rotterdam Roller Derby,nl,,"Rotterdam, nl",/img/leagues/WFTDA/rotterdam.png,WFTDA,,https://wftda.com/wftda-leagues/rotterdam-roller-derby/,[],FALSE,51.9244424,4.47775
Sierra Regional Roller Derby,us,,"Lake Tahoe, NV, us",/img/leagues/WFTDA/sierra-regional.png,WFTDA,,https://wftda.com/wftda-leagues/sierra-regional-roller-derby/,[],FALSE,39.0885405,-120.0503528
South Shore Roller Derby,us,,"Hammond, IN, us",/img/leagues/WFTDA/South-Shore-Roller-Derby.png,WFTDA,,https://wftda.com/wftda-leagues/south-shore-roller-derby/,[],FALSE,41.6173959,-87.5220108
Traverse City Roller Derby,us,,"Traverse City, MI, us",/img/leagues/WFTDA/traverse-city.png,WFTDA,,https://wftda.com/wftda-leagues/traverse-city-roller-derby/,[],FALSE,44.7606481,-85.6165976
Twin State Derby,us,,"White River Junction, VT, us",/img/leagues/WFTDA/Twin-State-Derby.png,WFTDA,,https://wftda.com/wftda-leagues/twin-state-derby/,[],FALSE,43.6505307,-72.3309258
Roller Derby Brest,fr,,"Brest, fr",/img/leagues/WFTDA/bmo.png,WFTDA,,https://wftda.com/wftda-leagues/roller-derby-brest/,[],FALSE,48.3905283,-4.4860088
Terrorz Roller Derby,us,,"Columbus, IN, us",/img/leagues/WFTDA/terrorz.png,WFTDA,,https://wftda.com/wftda-leagues/terrorz-roller-derby/,[],FALSE,39.2014405,-85.9213796
Saskatoon Roller Derby League,ca,,"Saskatoon, ca",/img/leagues/WFTDA/saskatoon.png,WFTDA,,https://wftda.com/wftda-leagues/saskatoon-roller-derby-league/,[],FALSE,52.131802,-106.660767
301 Derby Dames,us,,"La Plata, MD, us",/img/leagues/WFTDA/301-derby-dames.png,WFTDA,,https://wftda.com/wftda-leagues/301-derby-dames/,[],FALSE,38.5260311,-76.9766569
Warsaw Hellcats Roller Girls,pl,,"Warsaw, pl",/img/leagues/WFTDA/warsaw.png,WFTDA,,https://wftda.com/wftda-leagues/warsaw-hellcats-roller-girls/,[],FALSE,42.3625963,-83.0439943
Bux-Mont Roller Derby,us,,"Sellersville, PA, us",/img/leagues/WFTDA/Bux-Mont.png,WFTDA,,https://wftda.com/wftda-leagues/bux-mont-roller-derby/,[],FALSE,40.3542858,-75.3050079
Eves of Destruction,ca,,"Victoria, British Columbia, ca",/img/leagues/WFTDA/Eves-of-Destruction.png,WFTDA,,https://wftda.com/wftda-leagues/eves-of-destruction/,[],FALSE,48.4283182,-123.364953
Bisman Bombshellz Roller Derby,us,,"Mandan, ND, us",/img/leagues/WFTDA/bisman.png,WFTDA,,https://wftda.com/wftda-leagues/bisman-bombshellz-roller-derby/,[],FALSE,46.826415,-100.889704
Dirty Jersey Roller Derby,us,,"Hazlet, NJ, us",/img/leagues/WFTDA/dirty-jersey.png,WFTDA,,https://wftda.com/wftda-leagues/dirty-jersey-roller-derby/,[],FALSE,40.4292165,-74.1648999
East Vic Roller Derby,au,,"East Victoria, au",/img/leagues/WFTDA/east-vic.png,WFTDA,,https://wftda.com/wftda-leagues/east-vic-roller-derby/,[],FALSE,-38.0938176,145.2978015
Hiedras Roller Derby,ar,,"Cordoba, ar",/img/leagues/WFTDA/Hiedras-Roller-Derby.png,WFTDA,,https://wftda.com/wftda-leagues/hiedras-roller-derby/,[],FALSE,-31.4166867,-64.1834193
Oulu Roller Derby,fi,,"Oulu, fi",/img/leagues/WFTDA/oulu.png,WFTDA,,https://wftda.com/wftda-leagues/oulu-roller-derby/,[],FALSE,65.0117869,25.4701983
Coyote Country Roller Derby,us,,"Pullman, WA, us",/img/leagues/WFTDA/Coyote-Country-Roller-Derby.png,WFTDA,,https://wftda.com/wftda-leagues/coyote-country-roller-derby/,[],FALSE,46.7304268,-117.173895
The Anguanas-Vicenza Roller Derby,it,,"Vicenza, it",/img/leagues/WFTDA/anguanas.png,WFTDA,,https://wftda.com/wftda-leagues/the-anguanas-vicenza-roller-derby/,[],FALSE,45.6348591,11.4063543
The Cannibal Marmots,fr,,"Grenoble, fr",/img/leagues/WFTDA/wftda-logo-light.png,WFTDA,,https://wftda.com/wftda-leagues/the-cannibal-marmots/,[],FALSE,45.1875602,5.7357819
Toxic Lima Roller Derby,pe,,"Lima, pe",/img/leagues/WFTDA/toxic-lima.png,WFTDA,,https://wftda.com/wftda-leagues/toxic-lima-roller-derby/,[],FALSE,-12.0621065,-77.0365256
Bradentucky Bombers Roller Derby League,us,,"Bradenton, FL, us",/img/leagues/WFTDA/bradentucky.png,WFTDA,,https://wftda.com/wftda-leagues/bradentucky-bombers-roller-derby-league/,[],FALSE,27.4989278,-82.5748194
Mexico City Roller Derby,mx,,"Mexico City , mx",/img/leagues/WFTDA/Mexico-City-Roller-Derby.png,WFTDA,,https://wftda.com/wftda-leagues/mexico-city-roller-derby/,[],FALSE,19.3207722,-99.1514678
Aalborg Roller Derby,dk,,"9000 Aalborg, dk",/img/leagues/WFTDA/Aalborg-Roller-Derby.png,WFTDA,,https://wftda.com/wftda-leagues/aalborg-roller-derby/,[],FALSE,57.0394471,9.9135256
Flint Roller Derby,us,,"Flint, MI, us",/img/leagues/WFTDA/flint-roller-derby.png,WFTDA,,https://wftda.com/wftda-leagues/flint-roller-derby/,[],FALSE,43.0161693,-83.6900211
Nor Cal Roller Girls,us,,"Chico, CA, us",/img/leagues/WFTDA/nor-cal.png,WFTDA,,https://wftda.com/wftda-leagues/nor-cal-roller-girls/,[],FALSE,39.7284945,-121.8374777
As Brigantias Roller Derby,es,,"A Coruña, es",/img/leagues/WFTDA/as-brigantias-1.png,WFTDA,,https://wftda.com/wftda-leagues/as-brigantias-roller-derby/,[],FALSE,43.3709703,-8.3959425
Bergen Roller Derby,no,,"Bergen, no",/img/leagues/WFTDA/bergen.png,WFTDA,,https://wftda.com/wftda-leagues/bergen-roller-derby/,[],FALSE,60.3943055,5.3259192
Inland Empire Roller Derby,us,,"Grand Terrace, CA, us",/img/leagues/WFTDA/Inland-Empire-Roller-Derby.png,WFTDA,,https://wftda.com/wftda-leagues/inland-empire-roller-derby/,[],FALSE,34.0339107,-117.3138355
Middle Georgia Derby Demons,us,,"Macon, GA, us",/img/leagues/WFTDA/middle-georgia.png,WFTDA,,https://wftda.com/wftda-leagues/middle-georgia-derby-demons/,[],FALSE,32.8406946,-83.6324022
Newcastle Roller Derby League,au,,"Newcastle, au",/img/leagues/WFTDA/newcastle.png,WFTDA,,https://wftda.com/wftda-leagues/newcastle-roller-derby-league/,[],FALSE,-32.9192953,151.7795348
Norrköping Roller Derby,se,,"Norrköping, se",/img/leagues/WFTDA/norrkoping.png,WFTDA,,https://wftda.com/wftda-leagues/norrkoping-roller-derby/,[],FALSE,58.5909124,16.1903511
RGV Bandidas,us,,"McAllen, TX, us",/img/leagues/WFTDA/rgv.png,WFTDA,,https://wftda.com/wftda-leagues/rgv-bandidas/,[],FALSE,26.204114,-98.2300605
Roe City Roller Derby,us,,"Monroe, LA, us",/img/leagues/WFTDA/roe-city.png,WFTDA,,https://wftda.com/wftda-leagues/roe-city-roller-derby/,[],FALSE,32.5025471,-92.116219
Rough Diamond Rebels,us,,"Murrieta, CA, us",/img/leagues/WFTDA/rough-diamond.png,WFTDA,,https://wftda.com/wftda-leagues/rough-diamond-rebels/,[],FALSE,33.560832,-117.210656
Baja Roller Derby,mx,,"Baja, mx",/img/leagues/WFTDA/baja.png,WFTDA,,https://wftda.com/wftda-leagues/baja-roller-derby/,[],FALSE,30.0338923,-115.1425107
Rhein-Neckar Delta Quads,de,,"Mannheim, de",/img/leagues/WFTDA/rhein-neckar.png,WFTDA,,https://wftda.com/wftda-leagues/rhein-neckar-delta-quads/,[],FALSE,49.4892913,8.4673098
Anchor City Rollers,ca,,"Halifax, Nova Scotia, ca",/img/leagues/WFTDA/anchor-city.png,WFTDA,,https://wftda.com/wftda-leagues/anchor-city-rollers/,[],FALSE,44.648618,-63.5859487
Roller Derby Iceland,is,,"Hafnarfjörður, is",/img/leagues/WFTDA/iceland.png,WFTDA,,https://wftda.com/wftda-leagues/roller-derby-iceland/,[],FALSE,64.0695354,-21.9575664
Druid City Derby,us,,"Tuscaloosa, AL, us",/img/leagues/WFTDA/druid-city-derby.png,WFTDA,,https://wftda.com/wftda-leagues/druid-city-derby/,[],FALSE,33.2095614,-87.5675258
Faultline Derby Devilz,us,,"Hollister, CA, us",/img/leagues/WFTDA/faultline.png,WFTDA,,https://wftda.com/wftda-leagues/faultline-derby-devilz/,[],FALSE,36.8524545,-121.4016021
Liverpool Roller Birds,gb,,"Liverpool, England, gb",/img/leagues/WFTDA/liverpool.png,WFTDA,,https://wftda.com/wftda-leagues/liverpool-roller-birds/,[],FALSE,53.4071991,-2.99168
Rebellion Roller Derby,gb,,"Milton Keynes, England, gb",/img/leagues/WFTDA/rebellion.png,WFTDA,,https://wftda.com/wftda-leagues/rebellion-roller-derby/,[],FALSE,52.0406502,-0.7594092
Durham Region Roller Derby,ca,,"Whitby, ON, ca",/img/leagues/WFTDA/Durham-Region-Roller-Derby.png,WFTDA,,https://wftda.com/wftda-leagues/durham-region-roller-derby/,[],FALSE,43.87982,-78.9421751
Garden Island Renegade Rollerz,us,,"- Kauai Island, HI, us",/img/leagues/WFTDA/garden-island-renegade-rollerz.png,WFTDA,,https://wftda.com/wftda-leagues/garden-island-renegade-rollerz/,[],FALSE,22.0503838,-159.5588624
Kent Roller Derby,gb,,"Herne Bay, Kent, gb",/img/leagues/WFTDA/Kent-Roller-Derby.png,WFTDA,,https://wftda.com/wftda-leagues/kent-roller-derby/,[],FALSE,51.3719507,1.1306951
Pile O’Bones Derby Club,ca,,"Regina, SK, ca",/img/leagues/WFTDA/wftda-logo-light.png,WFTDA,,https://wftda.com/wftda-leagues/pile-obones-derby-club/,[],FALSE,50.4479733,-104.6158764
Storm City Roller Derby,us,,"Vancouver, WA, us",/img/leagues/WFTDA/storm-city-roller-derby.png,WFTDA,,https://wftda.com/wftda-leagues/storm-city-roller-derby/,[],FALSE,45.6306954,-122.6744557
Tempestad Roller Derby,uy,,"Montevideo, uy",/img/leagues/WFTDA/Tempestad.png,WFTDA,,https://wftda.com/wftda-leagues/tempestad-roller-derby/,[],FALSE,-34.9058916,-56.1913095
Manchester Roller Derby,gb,,"Manchester, gb",/img/leagues/WFTDA/Manchester-Roller-Derby.png,WFTDA,,https://wftda.com/wftda-leagues/manchester-roller-derby/,[],FALSE,53.4794892,-2.2451148
Norfolk Roller Derby,gb,,"Norwich, Great Britain, gb",/img/leagues/WFTDA/Norfolk-Roller-Derby.png,WFTDA,,https://wftda.com/wftda-leagues/norfolk-roller-derby/,[],FALSE,,
Portsmouth Roller Wenches,gb,,"Portsmouth, England, gb",/img/leagues/WFTDA/portsmouth.png,WFTDA,,https://wftda.com/wftda-leagues/portsmouth-roller-wenches/,[],FALSE,50.800031,-1.0906023
Roller Derby Toulouse,fr,,"Toulouse, fr",/img/leagues/WFTDA/Roller-Derby-Toulouse.png,WFTDA,,https://wftda.com/wftda-leagues/roller-derby-toulouse/,[],FALSE,43.6044622,1.4442469
Swamp City Roller Derby,nz,,"Palmerston North, nz",/img/leagues/WFTDA/Swamp-City-Roller-Derby.png,WFTDA,,https://wftda.com/wftda-leagues/swamp-city-roller-derby/,[],FALSE,-40.356317,175.6112388
Wiltshire Roller Derby,gb,,"Swindon, gb",/img/leagues/WFTDA/Wiltshire-Roller-Derby.png,WFTDA,,https://wftda.com/wftda-leagues/wiltshire-roller-derby/,[],FALSE,51.5615327,-1.7854322
Susquehanna Valley Derby Vixens,us,,"Sunbury, PA, us",/img/leagues/WFTDA/Susquehanna-Valley-Vixens-Derby.png,WFTDA,,https://wftda.com/wftda-leagues/susquehanna-valley-derby-vixens/,[],FALSE,40.8619754,-76.7936252
Auver’Niaks Roller Derby,fr,,"Clermont-Ferrand, fr",/img/leagues/WFTDA/Auverniaks-Roller-Derby.png,WFTDA,,https://wftda.com/wftda-leagues/auverniaks-roller-derby/,[],FALSE,45.7774551,3.0819427
Hard Breakers Prague,cz,,"Prague, cz",/img/leagues/WFTDA/Hard-Breakers-Prague.png,WFTDA,,https://wftda.com/wftda-leagues/hard-breakers-prague/,[],FALSE,50.0596288,14.4464593
Chicago-Style Roller Derby,us,,"Chicago, IL, us",/img/leagues/WFTDA/Chicago-Style-Roller-Derby.png,WFTDA,,https://wftda.com/wftda-leagues/chicago-style-roller-derby/,[],FALSE,41.8755616,-87.6244212
Dallas Derby Devils,us,,"Dallas, TX, us",/img/leagues/WFTDA/dallas.png,WFTDA,,https://wftda.com/wftda-leagues/dallas-derby-devils/,[],FALSE,32.7762719,-96.7968559
Oxford Roller Derby,gb,,"Oxford, England, gb",/img/leagues/WFTDA/Oxford-Roller-Derby.png,WFTDA,,https://wftda.com/wftda-leagues/oxford-roller-derby/,[],FALSE,51.7520131,-1.2578499
Tokyo Roller Derby,jp,,"Tokyo, jp",/img/leagues/WFTDA/Tokyo-Roller-Derby.png,WFTDA,,https://wftda.com/wftda-leagues/tokyo-roller-derby/,[],FALSE,51.7520131,-1.2578499
Kalamazoo Roller Derby,us,,"Kalamazoo, MI, us",/img/leagues/WFTDA/Kalamazoo-Roller-Derby.png,WFTDA,,https://wftda.com/wftda-leagues/kalamazoo-roller-derby/,[],FALSE,42.291707,-85.5872286
Misery Loves Company,us,,"San Jose, CA, us",/img/leagues/WFTDA/misery-loves-company.png,WFTDA,,https://wftda.com/wftda-leagues/misery-loves-company/,[],FALSE,37.3361663,-121.890591
Atomic Bombs Roller Derby,ar,,"Lanús, ar",/img/leagues/WFTDA/Atomic-Bombs-Roller-Derby.png,WFTDA,,https://wftda.com/wftda-leagues/atomic-bombs-roller-derby/,[],FALSE,-34.7033363,-58.3953235
Bristol Roller Derby,gb,,"Bristol, gb",/img/leagues/WFTDA/Bristol-Roller-Derby.png,WFTDA,,https://wftda.com/wftda-leagues/bristol-roller-derby/,[],FALSE,51.4538022,-2.5972985
Capital Rats Roller Derby,co,,"Bogotà, co",/img/leagues/WFTDA/Capital-Rats-Roller-Derby.png,WFTDA,,https://wftda.com/wftda-leagues/capital-rats-roller-derby/,[],FALSE,4.6534109,-74.0836547
Casa Grande Roller Derby,us,,"Casa Grande, AZ, us",/img/leagues/WFTDA/Casa-Grande-Roller-Derby.png,WFTDA,,https://wftda.com/wftda-leagues/casa-grande-roller-derby/,[],FALSE,32.8772834,-111.7536818
Discordias Roller Derby,mx,,"Mexico City, mx",/img/leagues/WFTDA/Discordias-Roller-Derby.png,WFTDA,,https://wftda.com/wftda-leagues/discordias-roller-derby/,[],FALSE,19.3207722,-99.1514678
Honey Island Rollers,mt,,"Maltese Islands, mt",/img/leagues/WFTDA/Honey-Island-Rollers.png,WFTDA,,https://wftda.com/wftda-leagues/honey-island-rollers/,[],FALSE,35.9022113,14.4137381
Orléans Roller Derby,fr,,"Orléans, fr",/img/leagues/WFTDA/Orleans-Roller-Derby.png,WFTDA,,https://wftda.com/wftda-leagues/orleans-roller-derby/,[],FALSE,47.9027336,1.9086066
Peterborough Area Roller Derby,ca,,"Peterborough, Ontario, ca",/img/leagues/WFTDA/Peterborough-Area-Roller-Derby.png,WFTDA,,https://wftda.com/wftda-leagues/peterborough-area-roller-derby/,[],FALSE,44.3048009,-78.3199496
Roller Derby Regensburg,de,,"Regensburg, de",/img/leagues/WFTDA/Roller-Derby-Regensburg.png,WFTDA,,https://wftda.com/wftda-leagues/roller-derby-regensburg/,[],FALSE,49.0195333,12.0974869
Schuylkill County Scream Queens,us,,"Pottsville, PA, us",/img/leagues/WFTDA/Schuylkill-County-Scream-Queens.png,WFTDA,,https://wftda.com/wftda-leagues/schuylkill-county-scream-queens/,[],FALSE,40.6851324,-76.1953701
Tacones Bandidos Roller Derby,cl,,"Viña del Mar, cl",/img/leagues/WFTDA/Tacones-Bandidos.png,WFTDA,,https://wftda.com/wftda-leagues/tacones-bandidos-roller-derby/,[],FALSE,-33.0244535,-71.5517636
Valencia Roller Derby,es,,"Valencia, es",/img/leagues/WFTDA/Valencia-Roller-Derby.png,WFTDA,,https://wftda.com/wftda-leagues/valencia-roller-derby/,[],FALSE,39.4697065,-0.3763353
Aroostook Roller Derby,us,,"Caribou, ME, us",/img/leagues/WFTDA/Aroostook-Roller-Derby.png,WFTDA,,https://wftda.com/wftda-leagues/aroostook-roller-derby/,[],FALSE,46.8606301,-68.0116807
Barderas Insurrectas Roller Derby,ar,,"Neuquén, ar",/img/leagues/WFTDA/Barderas-Insurrectas-Roller-Derby.png,WFTDA,,https://wftda.com/wftda-leagues/barderas-insurrectas-roller-derby/,[],FALSE,-38.3695057,-69.832275
Carquinez Quad Squad,us,,"Solano County, CA, us",/img/leagues/WFTDA/Carquinez-Quad-Squad.png,WFTDA,,https://wftda.com/wftda-leagues/carquinez-quad-squad/,[],FALSE,38.2218938,-121.9163555
Derby Club Le Cres Lattes Montpellier,fr,,"Montpellier, fr",/img/leagues/WFTDA/Derby-Club-le-Cres-Lattes-Montpellier.png,WFTDA,,https://wftda.com/wftda-leagues/derby-club-le-cres-lattes-montpellier/,[],FALSE,43.6112422,3.8767337
Diosas Volcanicas Roller Derby,cl,,"Puerto Varas, cl",/img/leagues/WFTDA/Diosas-Volcanicas-Roller-Derby.png,WFTDA,,https://wftda.com/wftda-leagues/diosas-volcanicas-roller-derby/,[],FALSE,-41.317802,-72.9829073
Nuclear Free Roller Derby League,ca,,"Red Deer, Alberta, ca",/img/leagues/WFTDA/wftda-logo-light.png,WFTDA,,https://wftda.com/wftda-leagues/nuclear-free-roller-derby-league/,[],FALSE,52.2690628,-113.8141464
Relentless Roller Derby,us,,"Greensboro, NC, us",/img/leagues/WFTDA/Relentless-Roller-Derby.png,WFTDA,,https://wftda.com/wftda-leagues/relentless-roller-derby/,[],FALSE,36.0726355,-79.7919754
SAM Roller Derby,fr,,"Bordeaux, fr",/img/leagues/WFTDA/SAM-Roller-Derby.png,WFTDA,,https://wftda.com/wftda-leagues/sam-roller-derby/,[],FALSE,44.841225,-0.5800364
Brisbane City Rollers,au,,"Brisbane, QLD, au",/img/leagues/WFTDA/BrisbaneCityRollers.png,WFTDA,,https://wftda.com/wftda-leagues/brisbane-city-rollers/,[],FALSE,-27.4689623,153.0235009
Colmena Roller Derby,ar,,"Buenos Aires, ar",/img/leagues/WFTDA/Colmena-Roller-Derby.png,WFTDA,,https://wftda.com/wftda-leagues/colmena-roller-derby/,[],FALSE,-27.4689623,153.0235009
Conroe Roller Derby,us,,"Conroe, TX, us",/img/leagues/WFTDA/Conroe-Roller-Derby.png,WFTDA,,https://wftda.com/wftda-leagues/conroe-roller-derby/,[],FALSE,30.3118769,-95.4560512
Flood Water Roller Derby,us,,"Roseville, CA, us",/img/leagues/WFTDA/Flood-Water-Roller-Derby.png,WFTDA,,https://wftda.com/wftda-leagues/flood-water-roller-derby/,[],FALSE,38.7521235,-121.2880059
Lansing Roller Derby,us,,"Lansing, MI, us",/img/leagues/WFTDA/Lansing-Roller-Derby.png,WFTDA,,https://wftda.com/wftda-leagues/lansing-roller-derby/,[],FALSE,42.7338254,-84.5546295
Roller Derby Innsbruck,at,,"Innsbruck, at",/img/leagues/WFTDA/wftda-logo-light.png,WFTDA,,https://wftda.com/wftda-leagues/roller-derby-innsbruck/,[],FALSE,47.2654296,11.3927685
Ghost Fleet Roller Derby,us,,"Hampton, VA, us",/img/leagues/WFTDA/Ghost-Fleet-Roller-Derby.png,WFTDA,,https://wftda.com/wftda-leagues/ghost-fleet-roller-derby/,[],FALSE,37.0264414,-76.3442846
Hamburg Roller Derby,de,,"Hamburg, de",/img/leagues/WFTDA/Hamburg-Roller-Derby.png,WFTDA,,https://wftda.com/wftda-leagues/hamburg-roller-derby/,[],FALSE,37.0264414,-76.3442846
Mad Monkeys Roller Derby,ar,,"Ciudad de Rosario, ar",/img/leagues/WFTDA/Mad-Monkeys-Roller-Derby.png,WFTDA,,https://wftda.com/wftda-leagues/mad-monkeys-roller-derby/,[],FALSE,-24.8083589,-65.387886
Outlaws Roller Derby,us,,"Auburn, CA, us",/img/leagues/WFTDA/Outlaws-Roller-Derby.png,WFTDA,,https://wftda.com/wftda-leagues/outlaws-roller-derby/,[],FALSE,38.8945939,-121.0739897
Santa Cruz Derby Groms,us,,"Santa Cruz, CA, us",/img/leagues/WFTDA/Santa-Cruz-Derby-Groms-Legacy.png,WFTDA,,https://wftda.com/wftda-leagues/santa-cruz-derby-groms/,[],FALSE,37.050096,-121.99059
Small Town Roller Derby,us,,"Kalkaska, MI, us",/img/leagues/WFTDA/Small-Town-Roller-Derby.png,WFTDA,,https://wftda.com/wftda-leagues/small-town-roller-derby/,[],FALSE,44.6780512,-85.1002509
Lyon United Roller Derby,fr,,"Lyon, fr",/img/leagues/WFTDA/Lyon-United-Roller-Derby.png,WFTDA,,https://wftda.com/wftda-leagues/lyon-united-roller-derby/,[],FALSE,44.6780512,-85.1002509
Avas Roller Derby,br,,"Rio de Janeiro, br",/img/leagues/WFTDA/Avas-Roller-Derby.png,WFTDA,,https://wftda.com/wftda-leagues/avas-roller-derby/,[],FALSE,44.6780512,-85.1002509
Inner West Roller Derby League,au,,"Sydney, au",/img/leagues/WFTDA/Inner-West-Roller-Derby-League.png,WFTDA,,https://wftda.com/wftda-leagues/inner-west-roller-derby-league/,[],FALSE,-33.8698439,151.2082848
Rome Roller Derby,us,,"Rome, GA, us",/img/leagues/WFTDA/Rome-Roller-Derby.png,WFTDA,,https://wftda.com/wftda-leagues/rome-roller-derby/,[],FALSE,34.257038,-85.1646726
Lakeshore Roller Derby,us,,"Hamilton, MI, us",/img/leagues/WFTDA/Lakeshore-Roller-Derby.png,WFTDA,,https://wftda.com/wftda-leagues/lakeshore-roller-derby/,[],FALSE,42.6772496,-86.0061464
Lisbon Grrrls Roller Derby,pt,,"Lisboa, pt",/img/leagues/WFTDA/Lisbon-Grrrls-Roller-Derby.png,WFTDA,,https://wftda.com/wftda-leagues/lisbon-grrrls-roller-derby/,[],FALSE,38.7077507,-9.1365919
